officename,pincode,officeType,Deliverystatus,divisionname,regionname,circlename,Taluk,Districtname,statename,Telephone,Related Suboffice,Related Headoffice,longitude,latitude
Adilabad H.O,504001,H.O,Delivery,Adilabad,Hyderabad,Andhra Pradesh,Adilabad,Adilabad,TELANGANA,08732-226738,,,,
Mancherial H.O,504208,H.O,Delivery,Adilabad,Hyderabad,Andhra Pradesh,Luxettipet,Adilabad,TELANGANA,08736-252003,,,,
Hanamkonda H.O,506001,H.O,Delivery,Hanamkonda,Hyderabad,Andhra Pradesh,Hanamkonda,Warangal,TELANGANA,0870-2455240,,,,
Jangaon H.O,506167,H.O,Delivery,Hanamkonda,Hyderabad,Andhra Pradesh,Jangaon,Warangal,TELANGANA,08716-222230,,,,
Parkal H.O,506164,H.O,Delivery,Hanamkonda,Hyderabad,Andhra Pradesh,Parkal,Warangal,TELANGANA,08713-241203,,,,
Jagtial H.O,505327,H.O,Delivery,Karimnagar,Hyderabad,Andhra Pradesh,Jagtial,Karim Nagar,TELANGANA,08724-225859,,,,
Karimnagar H.O,505001,H.O,Delivery,Karimnagar,Hyderabad,Andhra Pradesh,Karimnagar,Karim Nagar,TELANGANA,0878-2240290,,,,
Gadwal H.O,509125,H.O,Delivery,Mahabubnagar,Hyderabad,Andhra Pradesh,Gadwal,Mahabub Nagar,TELANGANA,08546-274877,,,,
Mahabubnagar H.O,509001,H.O,Delivery,Mahabubnagar,Hyderabad,Andhra Pradesh,Mahabubnagar H.o,Mahabub Nagar,TELANGANA,08542-241205,,,,
Medak H.O,502110,H.O,Delivery,Medak,Hyderabad,Andhra Pradesh,Medak,Medak,TELANGANA,08452-221597,,,,
Siddipet H.O,502103,H.O,Delivery,Medak,Hyderabad,Andhra Pradesh,Siddipet,Medak,TELANGANA,08457-223708,,,,
Bhongir H.O,508116,H.O,Delivery,Nalgonda,Hyderabad,Andhra Pradesh,Bhongiri,Nalgonda,TELANGANA,08685-242585,,,,
Nalgonda H.O,508001,H.O,Delivery,Nalgonda,Hyderabad,Andhra Pradesh,Nalgonda,Nalgonda,TELANGANA,08682-244204,,,,
Armoor H.O,503224,H.O,Delivery,Nizamabad,Hyderabad,Andhra Pradesh,Nizamabad,Nizamabad,TELANGANA,08463-222338,,,,
Kamareddy H.O,503111,H.O,Delivery,Nizamabad,Hyderabad,Andhra Pradesh,Nizamabad,Nizamabad,TELANGANA,08468-223322,,,,
Nizamabad H.O,503001,H.O,Delivery,Nizamabad,Hyderabad,Andhra Pradesh,Nizamabad,Nizamabad,TELANGANA,08462-220038,,,,
Huzurabad H.O,505468,H.O,Delivery,Peddapalli,Hyderabad,Andhra Pradesh,Huzurabad,Karim Nagar,TELANGANA,08727-252030,,,,
Peddapalli H.O,505172,H.O,Delivery,Peddapalli,Hyderabad,Andhra Pradesh,Peddapalli,Karim Nagar,TELANGANA,0878-222093,,,,
Sangareddy H.O,502001,H.O,Delivery,Sangareddy,Hyderabad,Andhra Pradesh,Sangareddy,Medak,TELANGANA,08455-276444,,,,
Zaheerabad H.O,502220,H.O,Delivery,Sangareddy,Hyderabad,Andhra Pradesh,Zaheerabad,Medak,TELANGANA,08451-282210,,,,
Miryalguda H.O,508207,H.O,Delivery,Suryapet,Hyderabad,Andhra Pradesh,Miryalguda,Nalgonda,TELANGANA,08689-242833,,,,
Suryapet H.O,508213,H.O,Delivery,Suryapet,Hyderabad,Andhra Pradesh,Suryapet,Nalgonda,TELANGANA,08684-220037,,,,
Stn. Jadcherla H.O,509301,H.O,Delivery,Wanaparthy,Hyderabad,Andhra Pradesh,Stn. Jadcherla,Mahabub Nagar,TELANGANA,08542-232518,,,,
Wanaparthy H.O,509103,H.O,Delivery,Wanaparthy,Hyderabad,Andhra Pradesh,Wanaparthy,Mahabub Nagar,TELANGANA,08545-232007,,,,
Mahabubabad H.O,506101,H.O,Delivery,Warangal,Hyderabad,Andhra Pradesh,Mahabubabad,Warangal,TELANGANA,08719-240070,,,,
Warangal H.O,506002,H.O,Delivery,Warangal,Hyderabad,Andhra Pradesh,Warangal,Warangal,TELANGANA,0870-2422701,,,,
Khairatabad H.O,500004,H.O,Delivery,Hyderabad City,Hyderabad City,Andhra Pradesh,Khairatabad,Hyderabad,TELANGANA,040-23428322,,,,
Hyderabad G.P.O. ,500001,H.O,Delivery,Hyderabad GPO,Hyderabad City,Andhra Pradesh,Hyderabad,Hyderabad,TELANGANA,040-23463515,,,,
Hyderabad Jubilee H.O,500002,H.O,Delivery,Hyderabad South East,Hyderabad City,Andhra Pradesh,Charminar,Hyderabad,TELANGANA,040-23463822,,,,
Stn Kachiguda H.O,500027,H.O,Delivery,Hyderabad South East,Hyderabad City,Andhra Pradesh,Himayathnagar,Hyderabad,TELANGANA,040-23463811,,,,
Secunderabad H.O,500003,H.O,Delivery,Secunderabad,Hyderabad City,Andhra Pradesh,Hyderabad,Hyderabad,TELANGANA,040-23463713,,,,
Trimulgherry H.O,500015,H.O,Delivery,Secunderabad,Hyderabad City,Andhra Pradesh,Rangareddy,Hyderabad,TELANGANA,040-23463755,,,,
Vikarabad H.O,501101,H.O,Delivery,Secunderabad,Hyderabad City,Andhra Pradesh,Hyd,Hyderabad,TELANGANA,08416-252098,,,,
Anantapur H.O,515001,H.O,Delivery,Anantapur,Kurnool,Andhra Pradesh,Anantapur,Ananthapur,ANDHRA PRADESH,08554-274111,,,,
Guntakal H.O,515801,H.O,Delivery,Anantapur,Kurnool,Andhra Pradesh,Guntakal,Ananthapur,ANDHRA PRADESH,08552-226444,,,,
Chittoor H.O,517001,H.O,Delivery,Chittoor,Kurnool,Andhra Pradesh,Chittoor,Chittoor,ANDHRA PRADESH,08572-233486,,,,
Madanapalle H.O,517325,H.O,Delivery,Chittoor,Kurnool,Andhra Pradesh,Madanapalle,Chittoor,ANDHRA PRADESH,08571-222022,,,,
Cuddapah H.O,516001,H.O,Delivery,Cuddapah,Kurnool,Andhra Pradesh,Cuddapah,Cuddapah,ANDHRA PRADESH,08562-242444,,,,
Rajampet H.O,516115,H.O,Delivery,Cuddapah,Kurnool,Andhra Pradesh,Rajampet,Cuddapah,ANDHRA PRADESH,08565-240260,,,,
Dharmavaram H.O,515671,H.O,Delivery,Hindupur,Kurnool,Andhra Pradesh,Dharmavaram,Ananthapur,ANDHRA PRADESH,08559-222211,,,,
Hindupur H.O,515201,H.O,Delivery,Hindupur,Kurnool,Andhra Pradesh,Hindupur,Ananthapur,ANDHRA PRADESH,08556-220471,,,,
Adoni H.O,518301,H.O,Delivery,Kurnool,Kurnool,Andhra Pradesh,Adoni,Kurnool,ANDHRA PRADESH,08512-253949,,,,
Kurnool H.O,518001,H.O,Delivery,Kurnool,Kurnool,Andhra Pradesh,Kurnool,Kurnool,ANDHRA PRADESH,08518-289205,,,,
Markapur H.O,523316,H.O,Delivery,Nandyal,Kurnool,Andhra Pradesh,Markapur,Prakasam,ANDHRA PRADESH,08596-222022,,,,
Nandyal H.O,518501,H.O,Delivery,Nandyal,Kurnool,Andhra Pradesh,Nandyal,Kurnool,ANDHRA PRADESH,08514-242960,,,,
Proddatur H.O,516360,H.O,Delivery,Proddatur,Kurnool,Andhra Pradesh,Proddatur,Cuddapah,ANDHRA PRADESH,08564-251444,,,,
Pulivendla H.O,516390,H.O,Delivery,Proddatur,Kurnool,Andhra Pradesh,Pulivendla,Cuddapah,ANDHRA PRADESH,08568-226222,,,,
Chandragiri H.O,517101,H.O,Delivery,Tirupati,Kurnool,Andhra Pradesh,Chandragiri,Chittoor,ANDHRA PRADESH,0877-2289209,,,,
Srikalahasti H.O,517644,H.O,Delivery,Tirupati,Kurnool,Andhra Pradesh,Srikalahasti,Chittoor,ANDHRA PRADESH,08578-222207,,,,
Tirupati H.O,517501,H.O,Delivery,Tirupati,Kurnool,Andhra Pradesh,Tirupati (Urban),Chittoor,ANDHRA PRADESH,0877-2289204,,,,
Bhimavaram H.O,534201,H.O,Delivery,Bhimavaram,Vijayawada,Andhra Pradesh,Bhimavaram (mdl),West Godavari,ANDHRA PRADESH,08816-234444,,,,
Palakol H.O,534260,H.O,Delivery,Bhimavaram,Vijayawada,Andhra Pradesh,Palakol(mdl),West Godavari,ANDHRA PRADESH,08814-222885,,,,
Tanuku H.O,534211,H.O,Delivery,Bhimavaram,Vijayawada,Andhra Pradesh,Tanuku (mdl),West Godavari,ANDHRA PRADESH,08819-223322,,,,
Eluru H.O,534001,H.O,Delivery,Eluru,Vijayawada,Andhra Pradesh,Eluru,West Godavari,ANDHRA PRADESH,08812-227295,,,,
Jangareddygudem H.O,534447,H.O,Delivery,Eluru,Vijayawada,Andhra Pradesh,J.r.gudem,West Godavari,ANDHRA PRADESH,08821-225330,,,,
Gudivada H.O,521301,H.O,Delivery,Gudivada,Vijayawada,Andhra Pradesh,Gudivada,Krishna,ANDHRA PRADESH,08674-245041,,,,
Nuzvid H.O,521201,H.O,Delivery,Gudivada,Vijayawada,Andhra Pradesh,Nuzvid,Krishna,ANDHRA PRADESH,08656-232722,,,,
Gudur H.O,524101,H.O,Delivery,Gudur,Vijayawada,Andhra Pradesh,Gudur,Nellore,ANDHRA PRADESH,08624-220874,,,,
Guntur H.O,522002,H.O,Delivery,Guntur,Vijayawada,Andhra Pradesh,Guntur,Guntur,ANDHRA PRADESH,0863-2255971,,,,
Mangalagiri H.O,522503,H.O,Delivery,Guntur,Vijayawada,Andhra Pradesh,Mangalagiri,Guntur,ANDHRA PRADESH,08645-232203,,,,
Bhadrachalam H.O,507111,H.O,Delivery,Khammam,Vijayawada,Andhra Pradesh,Bhadrachalam,Khammam,TELANGANA,08743-232322,,,,
Khammam H.O,507001,H.O,Delivery,Khammam,Vijayawada,Andhra Pradesh,Khammam,Khammam,TELANGANA,08742-228438,,,,
Kothagudem Colls H.O,507101,H.O,Delivery,Khammam,Vijayawada,Andhra Pradesh,Kothagudem,Khammam,TELANGANA,08744-242608,,,,
Avanigadda H.O,521121,H.O,Delivery,Machilipatnam,Vijayawada,Andhra Pradesh,Avanigadda,Krishna,ANDHRA PRADESH,08671-272274,,,,
Machilipatnam H.O,521001,H.O,Delivery,Machilipatnam,Vijayawada,Andhra Pradesh,Bandar,Krishna,ANDHRA PRADESH,08672-223836,,,,
Narasaraopet H.O,522601,H.O,Delivery,Narasaraopet,Vijayawada,Andhra Pradesh,Narasaraopet,Guntur,ANDHRA PRADESH,08647-222022,,,,
Sattenapalle H.O,522403,H.O,Delivery,Narasaraopet,Vijayawada,Andhra Pradesh,Sattenapalle,Guntur,ANDHRA PRADESH,08641-232130,,,,
Kavali H.O,524201,H.O,Delivery,Nellore,Vijayawada,Andhra Pradesh,Kavali,Nellore,ANDHRA PRADESH,08626-243522,,,,
Nellore H.O,524001,H.O,Delivery,Nellore,Vijayawada,Andhra Pradesh,Nellore,Nellore,ANDHRA PRADESH,0861-2306704,,,,
Chirala H.O,523155,H.O,Delivery,Prakasam,Vijayawada,Andhra Pradesh,Chirala,Prakasam,ANDHRA PRADESH,08594-232444,,,,
Kandukur H.O,523105,H.O,Delivery,Prakasam,Vijayawada,Andhra Pradesh,Kandukur,Prakasam,ANDHRA PRADESH,08598-222797,,,,
Kanigiri H.O,523230,H.O,Delivery,Prakasam,Vijayawada,Andhra Pradesh,Kanigiri,Prakasam,ANDHRA PRADESH,08402-274122,,,,
Ongole H.O,523001,H.O,Delivery,Prakasam,Vijayawada,Andhra Pradesh,Ongole,Prakasam,ANDHRA PRADESH,08592-233520,,,,
Kovvur H.O,534350,H.O,Delivery,Tadepalligudem,Vijayawada,Andhra Pradesh,Kovvur,West Godavari,ANDHRA PRADESH,08813-231522,,,,
Tadepalligudem H.O,534101,H.O,Delivery,Tadepalligudem,Vijayawada,Andhra Pradesh,Tadepalligudem,West Godavari,ANDHRA PRADESH,08818-221300,,,,
Bapatla H.O,522101,H.O,Delivery,Tenali,Vijayawada,Andhra Pradesh,Bapatla,Guntur,ANDHRA PRADESH,08643-224022,,,,
Tenali H.O,522201,H.O,Delivery,Tenali,Vijayawada,Andhra Pradesh,Tenali,Guntur,ANDHRA PRADESH,08644-227863,,,,
Buckinghampet H.O,520002,H.O,Delivery,Vijayawada,Vijayawada,Andhra Pradesh,Vijayawada (Urban),Krishna,ANDHRA PRADESH,0866-2573022,,,,
Vijayawada H.O,520001,H.O,Delivery,Vijayawada,Vijayawada,Andhra Pradesh,Krishna,Krishna,ANDHRA PRADESH,0866-2425649,,,,
Amalapuram H.O,533201,H.O,Delivery,Amalapuram,Visakhapatnam,Andhra Pradesh,Amalapuram,East Godavari,ANDHRA PRADESH,08856-233026,,,,
Razole H.O,533242,H.O,Delivery,Amalapuram,Visakhapatnam,Andhra Pradesh,Razole,East Godavari,ANDHRA PRADESH,08862-221028,,,,
Anakapalle H.O,531001,H.O,Delivery,Anakapalle,Visakhapatnam,Andhra Pradesh,Anakapalle,Visakhapatnam,ANDHRA PRADESH,08924-223374,,,,
Narsipatnam H.O,531116,H.O,Delivery,Anakapalle,Visakhapatnam,Andhra Pradesh,Narsipatnam,Visakhapatnam,ANDHRA PRADESH,08932-226022,,,,
Kakinada H.O,533001,H.O,Delivery,Kakinada,Visakhapatnam,Andhra Pradesh,Kakinada,East Godavari,ANDHRA PRADESH,0884-2376134,,,,
Samalkot H.O,533440,H.O,Delivery,Kakinada,Visakhapatnam,Andhra Pradesh,Kakinada,East Godavari,ANDHRA PRADESH,0884-2327354,,,,
Bobbili H.O,535558,H.O,Delivery,Parvathipuram,Visakhapatnam,Andhra Pradesh,Bobbili,Vizianagaram,ANDHRA PRADESH,08944-255462,,,,
Parvatipuram H.O,535501,H.O,Delivery,Parvathipuram,Visakhapatnam,Andhra Pradesh,Parvathipuram,Vizianagaram,ANDHRA PRADESH,08963-221043,,,,
Rajahmundry H.O,533101,H.O,Delivery,Rajahmundry,Visakhapatnam,Andhra Pradesh,Rajahmundry,East Godavari,ANDHRA PRADESH,0883-2442338,,,,
Ramachandrapuram H.O,533255,H.O,Delivery,Rajahmundry,Visakhapatnam,Andhra Pradesh,Ramachandrapuram,East Godavari,ANDHRA PRADESH,08857-242326,,,,
Amadalavalasa H.O,532185,H.O,Delivery,Srikakulam,Visakhapatnam,Andhra Pradesh,Amadalavalasa,Srikakulam,ANDHRA PRADESH,08942-286232,,,,
Srikakulam H.O,532001,H.O,Delivery,Srikakulam,Visakhapatnam,Andhra Pradesh,Srikakulam,Srikakulam,ANDHRA PRADESH,08942-229906,,,,
Tekkali H.O,532201,H.O,Delivery,Srikakulam,Visakhapatnam,Andhra Pradesh,Tekkali,Srikakulam,ANDHRA PRADESH,08945-245472,,,,
Visakhapatnam H.O,530001,H.O,Delivery,Visakhapatnam,Visakhapatnam,Andhra Pradesh,Visakhapatnam (Urban),Visakhapatnam,ANDHRA PRADESH,0891-2546250,,,,
Waltair R S H.O,530004,H.O,Delivery,Visakhapatnam,Visakhapatnam,Andhra Pradesh,Visakhapatnam (Urban),Visakhapatnam,ANDHRA PRADESH,0891-2546301,,,,
Vizianagaram H.O,535002,H.O,Delivery,Vizianagaram,Visakhapatnam,Andhra Pradesh,Vizianagaram,Vizianagaram,ANDHRA PRADESH,08922-226855,,,,
Dibrugarh H.O,786001,H.O,Delivery,Dibrugarh,Dibrugarh,Assam,Dibrugarh,Dibrugarh,ASSAM,0373-2325006,,,,
North Lakhimpur H.O,787001,H.O,Delivery,Dibrugarh,Dibrugarh,Assam,North Lakhimpur,Lakhimpur,ASSAM,03752-222333,,,,
Diphu H.O,782460,H.O,Delivery,Nagaon,Dibrugarh,Assam,Diphu,Karbi Anglong,ASSAM,03671-272251,,,,
Nagaon H.O,782001,H.O,Delivery,Nagaon,Dibrugarh,Assam,Nagaon,Nagaon,ASSAM,03672-233342,,,,
Golaghat H.O,785621,H.O,Delivery,Sibsagar,Dibrugarh,Assam,Golaghat,Golaghat,ASSAM,03774-283497,,,,
Jorhat H.O,785001,H.O,Delivery,Sibsagar,Dibrugarh,Assam,Jorhat,Jorhat,ASSAM,0376-2320045,,,,
Sivasagar H.O,785640,H.O,Delivery,Sibsagar,Dibrugarh,Assam,Sivasagar,Sibsagar,ASSAM,03772-222722,,,,
Tinsukia H.O,786125,H.O,Delivery,Tinsukia,Dibrugarh,Assam,Tinsukia,Tinsukia,ASSAM,0374-2338115,,,,
Hailakandi H.O,788151,H.O,Delivery,Cachar,Guwahati HQ,Assam,,Cachar,ASSAM,03844-222228,,,,
Karimganj H.O,788710,H.O,Delivery,Cachar,Guwahati HQ,Assam,,Karimganj,ASSAM,03843-262258,,,,
Silchar H.O,788001,H.O,Delivery,Cachar,Guwahati HQ,Assam,,Cachar,ASSAM,03842-237230,,,,
Mangaldoi H.O,784125,H.O,Delivery,Darrang,Guwahati HQ,Assam,Mangaldoi,Darrang,ASSAM,03713-222170,,,,
Tezpur H.O,784001,H.O,Delivery,Darrang,Guwahati HQ,Assam,Tezpur,Sonitpur,ASSAM,03712-220183,,,,
Dhubri H.O,783301,H.O,Delivery,Goalpara,Guwahati HQ,Assam,Dhubri,Dhubri,ASSAM,03662-230257,,,,
Kokrajhar H.O,783370,H.O,Delivery,Goalpara,Guwahati HQ,Assam,Kokrajhar,Kokrajhar,ASSAM,03661-270656,,,,
Guwahati G.P.O. ,781001,H.O,Delivery,Guwahati,Guwahati HQ,Assam,Gmc,Kamrup,ASSAM,0361-2731170,,,,
Guwahati University H.O,781014,H.O,Delivery,Guwahati,Guwahati HQ,Assam,Gmc,Kamrup,ASSAM,0361-2570267,,,,
Barpeta H.O,781301,H.O,Delivery,Nalbari,Guwahati HQ,Assam,Barpeta,Barpeta,ASSAM,03665-252148,,,,
Nalbari H.O,781335,H.O,Delivery,Nalbari,Guwahati HQ,Assam,Nalbari,Nalbari,ASSAM,03624-220214,,,,
Begusarai H.O,851101,H.O,Delivery,Begusarai,Muzaffarpur,Bihar,Begusarai,Begusarai,BIHAR,06243-212872,,,,
Darbhanga H.O,846004,H.O,Delivery,Darbhanga,Muzaffarpur,Bihar,Darbhanga,Darbhanga,BIHAR,06272-222636,,,,
Laheriasarai H.O,846001,H.O,Delivery,Darbhanga,Muzaffarpur,Bihar,Darbhanga,Darbhanga,BIHAR,06272-245186,,,,
Motihari H.O,845401,H.O,Delivery,East Champaran,Muzaffarpur,Bihar,Motihari,East Champaran,BIHAR,06252-232934,,,,
Madhubani H.O,847211,H.O,Delivery,Madhubani,Muzaffarpur,Bihar,Sadar Madhubani,Madhubani,BIHAR,06276-222403,,,,
Muzaffarpur H.O,842001,H.O,Delivery,Muzaffarpur,Muzaffarpur,Bihar,Muzaffarpur,Muzaffarpur,BIHAR,0621-2216137,,,,
Katihar H.O,854105,H.O,Delivery,Purnea,Muzaffarpur,Bihar,Katihar,Katihar,BIHAR,06452-242301,,,,
Purnea H.O,854301,H.O,Delivery,Purnea,Muzaffarpur,Bihar,Purnea,Purnia,BIHAR,06454-242551,,,,
Saharsa H.O,852201,H.O,Delivery,Saharsa,Muzaffarpur,Bihar,Kahara,Saharsa,BIHAR,06478-223516,,,,
Samastipur H.O,848101,H.O,Delivery,Samastipur,Muzaffarpur,Bihar,Samastipur,Samastipur,BIHAR,06274-222465,,,,
Chapra H.O,841301,H.O,Delivery,Saran,Muzaffarpur,Bihar,Chapra,Saran,BIHAR,06152-232278,,,,
Marhowrah H.O,841418,H.O,Delivery,Saran,Muzaffarpur,Bihar,Chapra,Saran,BIHAR,06159-231330,,,,
Sitamarhi H.O,843301,H.O,Delivery,Sitamarhi,Muzaffarpur,Bihar,Dumra,Sitamarhi,BIHAR,06226-251232,,,,
Gopalganj H.O,841428,H.O,Delivery,Siwan,Muzaffarpur,Bihar,Gopalganj,Gopalganj,BIHAR,06156-224603,,,,
Siwan H.O,841226,H.O,Delivery,Siwan,Muzaffarpur,Bihar,Siwan,Siwan,BIHAR,06154-242989,,,,
Bettiah H.O,845438,H.O,Delivery,West Champaran,Muzaffarpur,Bihar,Bettiah,West Champaran,BIHAR,06254-242205,,,,
Aurangabad (BH) H.O,824101,H.O,Delivery,Aurangabad(Bihar),Patna HQ,Bihar,Aurangabad,Aurangabad(BH),BIHAR,06186-223145,,,,
Banka H.O,813102,H.O,Delivery,Bhagalpur,Patna HQ,Bihar,Banka,Banka,BIHAR,06424-232353,,,,
Bhagalpur H.O,812001,H.O,Delivery,Bhagalpur,Patna HQ,Bihar,Jagdishpur,Bhagalpur,BIHAR,0641-2400066,,,,
Arrah H.O,802301,H.O,Delivery,Bhojpur,Patna HQ,Bihar,Arrah,Bhojpur,BIHAR,06182-233329,,,,
Buxar H.O,802101,H.O,Delivery,Bhojpur,Patna HQ,Bihar,Buxar,Buxar,BIHAR,06183-227860,,,,
Gaya H.O,823001,H.O,Delivery,Gaya,Patna HQ,Bihar,Gaya,Gaya,BIHAR,0631-2223329,,,,
Jehanabad H.O,804408,H.O,Delivery,Gaya,Patna HQ,Bihar,Jehanabad,Jehanabad,BIHAR,06114-227844,,,,
Jamui H.O,811307,H.O,Delivery,Monghyr,Patna HQ,Bihar,Jamui,Jamui,BIHAR,06345-224039,,,,
Munger H.O,811201,H.O,Delivery,Monghyr,Patna HQ,Bihar,Munger,Munger,BIHAR,06344-222144,,,,
Biharsharif H.O,803101,H.O,Delivery,Nalanda,Patna HQ,Bihar,Biharsharif,Nalanda,BIHAR,06112-232034,,,,
Nawadha H.O,805110,H.O,Delivery,Nawadha,Patna HQ,Bihar,Nawadha,Nawada,BIHAR,06324-212306,,,,
Bankipore H.O,800004,H.O,Delivery,Patna,Patna HQ,Bihar,Sampatchak,Patna,BIHAR,0612-2665233,,,,
Patna G.P.O. ,800001,H.O,Delivery,Patna GPO,Patna HQ,Bihar,Phulwari,Patna,BIHAR,0612-2224150,,,,
Sasaram H.O,821115,H.O,Delivery,Rohtas,Patna HQ,Bihar,Sasaram,Rohtas,BIHAR,06184-222088,,,,
Hajipur H.O,844101,H.O,Delivery,Vaishali,Patna HQ,Bihar,Hajipur,Vaishali,BIHAR,0624-260239,,,,
Jagdalpur H.O,494001,H.O,Delivery,Bastar,Raipur,Chattisgarh,Jagdalpur,Bastar,CHATTISGARH,07782-222390,,,,
Kanker H.O,494334,H.O,Delivery,Bastar,Raipur,Chattisgarh,Kanker,Kanker,CHATTISGARH,07868-241477,,,,
Bilaspur (Bilaspur-CGH) H.O,495001,H.O,Delivery,Bilaspur,Raipur,Chattisgarh,Bilaspur,Bilaspur(CGH),CHATTISGARH,07752-228218,,,,
Korba H.O,495677,H.O,Delivery,Bilaspur,Raipur,Chattisgarh,Korba,Korba,CHATTISGARH,07759-227006,,,,
Durg H.O,491001,H.O,Delivery,Durg,Raipur,Chattisgarh,Durg,Durg,CHATTISGARH,0788-2323404,,,,
Ibsb Bhilai H.O,490001,H.O,Non-Delivery,Durg,Raipur,Chattisgarh,Durg,Durg,CHATTISGARH,0788-2278129,,,,
Rajnandgaon H.O,491441,H.O,Delivery,Durg,Raipur,Chattisgarh,Rajnandgaon,Rajnandgaon,CHATTISGARH,07744-224016,,,,
Ambikapur H.O,497001,H.O,Delivery,Raigarh,Raipur,Chattisgarh,Ambikapur,Surguja,CHATTISGARH,07774-220952,,,,
Raigarh H.O,496001,H.O,Delivery,Raigarh,Raipur,Chattisgarh,,Raigarh,CHATTISGARH,07762-223026,,,,
Raipur H.O,492001,H.O,Delivery,Raipur,Raipur,Chattisgarh,Raipur,Raipur,CHATTISGARH,0771-2234577,,,,
Jhilmil H.O,110095,H.O,Delivery,Delhi East,Delhi,Delhi,,East Delhi,DELHI,011-22129379,,,,
Krishna Nagar H.O,110051,H.O,Delivery,Delhi East,Delhi,Delhi,,East Delhi,DELHI,011-22373250,,,,
Delhi G.P.O. ,110006,H.O,Delivery,Delhi GPO,Delhi,Delhi,Delhi,North Delhi,DELHI,011-23869771,,,,
Ashok Vihar H.O,110052,H.O,Delivery,Delhi North,Delhi,Delhi,Delhi,North West Delhi,DELHI,011-27249661,,,,
Indraprastha H.O,110002,H.O,Delivery,New Delhi Central,Delhi,Delhi,New Delhi,Central Delhi,DELHI,011-23236795,,,,
Sansad Marg H.O,110001,H.O,Non-Delivery,New Delhi Central,Delhi,Delhi,New Delhi,Central Delhi,DELHI,011-23096070,,,,
New Delhi G.P.O. ,110001,H.O,Delivery,New Delhi GPO,Delhi,Delhi,New Delhi,New Delhi,DELHI,011-23743602,,,,
Kalkaji H.O,110019,H.O,Delivery,New Delhi South,Delhi,Delhi,New Delhi,South Delhi,DELHI,011-26433693,,,,
Lodi Road H.O,110003,H.O,Delivery,New Delhi South,Delhi,Delhi,New Delhi,South Delhi,DELHI,011-24692329,,,,
Sarojini Nagar H.O,110023,H.O,Delivery,New Delhi South West,Delhi,Delhi,Delhi,South West Delhi,DELHI,011-24670081,,,,
Naraina Industrial Estate H.O,110028,H.O,Delivery,New Delhi West,Delhi,Delhi,New Delhi,South West Delhi,DELHI,011-25896286,,,,
Ramesh Nagar H.O,110015,H.O,Delivery,New Delhi West,Delhi,Delhi,New Delhi,West Delhi,DELHI,011-25932736,,,,
Navrangpura H.O,380009,H.O,Delivery,Ahmedabad City,Ahmedabad HQ,Gujarat,Ahmadabad City,Ahmedabad,GUJARAT,079-26441933,,,,
Revdibazar H.O,380002,H.O,Non-Delivery,Ahmedabad City,Ahmedabad HQ,Gujarat,Ahmadabad City,Ahmedabad,GUJARAT,079-22171210,,,,
Ahmedabad G.P.O. ,380001,H.O,Delivery,Ahmedabad GPO,Ahmedabad HQ,Gujarat,Ahmadabad City,Ahmedabad,GUJARAT,079-25510027,,,,
Palanpur H.O,385001,H.O,Delivery,Banasanktha,Ahmedabad HQ,Gujarat,Palanpur,Banaskantha,GUJARAT,02742-253757,,,,
Dholka H.O,382225,H.O,Delivery,Gandhinagar,Ahmedabad HQ,Gujarat,Dholka,Ahmedabad,GUJARAT,02714-220138,,,,
Gandhinagar (Gujarat) H.O,382010,H.O,Delivery,Gandhinagar,Ahmedabad HQ,Gujarat,Gandhinagar,Gandhi Nagar,GUJARAT,079-23229809,,,,
Kalol H.O,382721,H.O,Delivery,Gandhinagar,Ahmedabad HQ,Gujarat,Kalol,Gandhi Nagar,GUJARAT,02764-223211,,,,
Mahesana H.O,384001,H.O,Delivery,Mahesana,Ahmedabad HQ,Gujarat,Mahesana,Mahesana,GUJARAT,02762-236857,,,,
Patan H.O,384265,H.O,Delivery,Patan,Ahmedabad HQ,Gujarat,Patan,Patan,GUJARAT,02766-230649,,,,
Himatnagar H.O,383001,H.O,Delivery,Sabarkantha,Ahmedabad HQ,Gujarat,Himatnagar,Sabarkantha,GUJARAT,02772-241545,,,,
Amreli H.O,365601,H.O,Delivery,Amreli,Rajkot,Gujarat,Amreli,Amreli,GUJARAT,02792-221118,,,,
Bhavnagar H.O,364001,H.O,Delivery,Bhavnagar,Rajkot,Gujarat,Bhavnagar,Bhavnagar,GUJARAT,0278-2426972,,,,
Gondal H.O,360311,H.O,Delivery,Gondal,Rajkot,Gujarat,,Rajkot,GUJARAT,02825-220305,,,,
Jamnagar H.O,361001,H.O,Delivery,Jamnagar,Rajkot,Gujarat,Kalavad,Jamnagar,GUJARAT,0288-2671384,,,,
Junagadh H.O,362001,H.O,Non-Delivery,Junagadh,Rajkot,Gujarat,Junagadh,Junagadh,GUJARAT,0285-2673750,,,,
Bhuj H.O,370001,H.O,Delivery,Kutch,Rajkot,Gujarat,Bhuj,Kachchh,GUJARAT,02832-222952,,,,
Porbandar H.O,360575,H.O,Delivery,Porbandar,Rajkot,Gujarat,Porbandar,Porbandar,GUJARAT,0286-2242415,,,,
Rajkot H.O,360001,H.O,Delivery,Rajkot,Rajkot,Gujarat,Rajkot,Rajkot,GUJARAT,0281-2224532,,,,
Surendranagar H.O,363001,H.O,Delivery,Surendranagar,Rajkot,Gujarat,Wadhwanicity,Surendra Nagar,GUJARAT,02752-285052,,,,
Anand H.O,388001,H.O,Delivery,Anand,Vadodara,Gujarat,Anand,Anand,GUJARAT,02692-241050,,,,
Bardoli H.O,394601,H.O,Delivery,Bardoli,Vadodara,Gujarat,Bardoli,Surat,GUJARAT,02622-220931,,,,
Bharuch H.O,392001,H.O,Delivery,Bharuch,Vadodara,Gujarat,Bharuch,Bharuch,GUJARAT,02642-243407,,,,
Kheda H.O,387411,H.O,Delivery,Kheda,Vadodara,Gujarat,Kheda,Kheda,GUJARAT,02694-222023,,,,
Nadiad H.O,387001,H.O,Delivery,Kheda,Vadodara,Gujarat,Nadiad,Kheda,GUJARAT,0268-2567740,,,,
Bilimora H.O,396321,H.O,Delivery,Navsari,Vadodara,Gujarat,Gandevi,Navsari,GUJARAT,02634-285621,,,,
Navsari H.O,396445,H.O,Delivery,Navsari,Vadodara,Gujarat,Navsari,Navsari,GUJARAT,02637-250251,,,,
Dahod H.O,389151,H.O,Delivery,Panchmahals,Vadodara,Gujarat,Dohad,Dahod,GUJARAT,02673-242723,,,,
Godhra H.O,389001,H.O,Delivery,Panchmahals,Vadodara,Gujarat,Godhra,Panch Mahals,GUJARAT,02672-241713,,,,
Nanpura H.O,395001,H.O,Delivery,Surat,Vadodara,Gujarat,Surat,Surat,GUJARAT,0261-2475912,,,,
Surat H.O,395003,H.O,Delivery,Surat,Vadodara,Gujarat,Surat City,Surat,GUJARAT,0261-2418178,,,,
Dabhoi H.O,391110,H.O,Non-Delivery,Vadodara East,Vadodara,Gujarat,Dabhoi,Vadodara,GUJARAT,02663-257050,,,,
Vadodara H.O,390001,H.O,Delivery,Vadodara East,Vadodara,Gujarat,Vadodara,Vadodara,GUJARAT,0265-2422449,,,,
Fateganj H.O,390002,H.O,Delivery,Vadodara West,Vadodara,Gujarat,Vadodara,Vadodara,GUJARAT,0265-2795355,,,,
Valsad H.O,396001,H.O,Delivery,Valsad,Vadodara,Gujarat,Valsad,Valsad,GUJARAT,02632-242038,,,,
Ambala City H.O,134003,H.O,Delivery,Ambala,Ambala  HQ,Haryana,Ambala,Ambala,HARYANA,0171-2556746,,,,
Ambala G.P.O.,133001,H.O,Delivery,Ambala,Ambala  HQ,Haryana,,Ambala,HARYANA,0171-2644948,,,,
Yamunanagar H.O,135001,H.O,Delivery,Ambala,Ambala  HQ,Haryana,,Yamuna Nagar,HARYANA,01732-238186,,,,
Bhiwani H.O,127021,H.O,Delivery,Bhiwani,Ambala  HQ,Haryana,Bhiwani,Bhiwani,HARYANA,01664-242146,,,,
Faridabad NIT H.O,121001,H.O,Delivery,Faridabad,Ambala  HQ,Haryana,Faridabad,Faridabad,HARYANA,0129-2415821,,,,
Gurgaon H.O,122001,H.O,Delivery,Gurgaon,Ambala  HQ,Haryana,Sadar Bazar,Gurgaon,HARYANA,0124-2320392,,,,
Narnaul H.O,123001,H.O,Delivery,Gurgaon,Ambala  HQ,Haryana,Civil Line,Mahendragarh,HARYANA,01282-251924,,,,
Hisar H.O,125001,H.O,Delivery,Hissar,Ambala  HQ,Haryana,Hisar,Hisar,HARYANA,01662-233130,,,,
Sirsa H.O,125055,H.O,Delivery,Hissar,Ambala  HQ,Haryana,Sirsa,Sirsa,HARYANA,01666-221202,,,,
Jind H.O,126102,H.O,Delivery,Karnal,Ambala  HQ,Haryana,Jind,Jind,HARYANA,01681-253170,,,,
Karnal H.O,132001,H.O,Delivery,Karnal,Ambala  HQ,Haryana,Karnal,Karnal,HARYANA,0184-2272298,,,,
Panipat H.O,132103,H.O,Delivery,Karnal,Ambala  HQ,Haryana,Panipat,Panipat,HARYANA,0180-2650933,,,,
Kurukshetra H.O,136118,H.O,Delivery,Kurukshetra,Ambala  HQ,Haryana,Tthanesar,Kurukshetra,HARYANA,01744-220010,,,,
Bahadurgarh H.O,124507,H.O,Delivery,Rohtak,Ambala  HQ,Haryana,Bahadurgarh,Jhajjar,HARYANA,01276-230478,,,,
Rohtak H.O,124001,H.O,Delivery,Rohtak,Ambala  HQ,Haryana,Rohtak,Rohtak,HARYANA,01262-257871,,,,
Sonipat H.O,131001,H.O,Delivery,Sonepat,Ambala  HQ,Haryana,Sonipat,Sonipat,HARYANA,0130-2246955,,,,
Chamba H.O,176310,H.O,Delivery,Chamba,Shimla HQ,Himachal Pradesh,Chamba(T),Chamba,HIMACHAL PRADESH,01899-222348,,,,
Dehra H.O,177101,H.O,Delivery,Dehra Gopipur,Shimla HQ,Himachal Pradesh,Dehra Gopipur,Kangra,HIMACHAL PRADESH,01970-233142,,,,
Kangra H.O,176001,H.O,Delivery,Dehra Gopipur,Shimla HQ,Himachal Pradesh,Kangra(T),Kangra,HIMACHAL PRADESH,01892-265029,,,,
Dharamsala H.O,176215,H.O,Delivery,Dharamsala,Shimla HQ,Himachal Pradesh,Dharamsala,Kangra,HIMACHAL PRADESH,01892-222912,,,,
Palampur H.O,176061,H.O,Delivery,Dharamsala,Shimla HQ,Himachal Pradesh,Palampur,Kangra,HIMACHAL PRADESH,01894-230965,,,,
Barsar H.O,174305,H.O,Delivery,Hamirpur,Shimla HQ,Himachal Pradesh,Barsar,Hamirpur(HP),HIMACHAL PRADESH,01972-288037,,,,
Bilaspur (Bilaspur- HP) H.O,174001,H.O,Delivery,Hamirpur,Shimla HQ,Himachal Pradesh,Bilaspur,Bilaspur (HP),HIMACHAL PRADESH,01978-222245,,,,
Hamirpur H.O,177001,H.O,Delivery,Hamirpur,Shimla HQ,Himachal Pradesh,Hamirpur,Hamirpur(HP),HIMACHAL PRADESH,01972-225882,,,,
Keylong H.O,175132,H.O,Delivery,Mandi,Shimla HQ,Himachal Pradesh,Lahaul,Lahul & Spiti,HIMACHAL PRADESH,01900-222770,,,,
Kullu H.O,175101,H.O,Delivery,Mandi,Shimla HQ,Himachal Pradesh,Kullu,Kullu,HIMACHAL PRADESH,01902-222550,,,,
Mandi H.O,175001,H.O,Delivery,Mandi,Shimla HQ,Himachal Pradesh,Mandi(T),Mandi,HIMACHAL PRADESH,01905-222121,,,,
Sunder Nagar Town Ship H.O,175019,H.O,Delivery,Mandi,Shimla HQ,Himachal Pradesh,Sundarnagar(T),Mandi,HIMACHAL PRADESH,01907-262423,,,,
Rampur Bushahr H.O,172001,H.O,Delivery,Rampur Bushahr,Shimla HQ,Himachal Pradesh,Rampur Bushahr,Shimla,HIMACHAL PRADESH,01782-233048,,,,
Reckong Peo H.O,172107,H.O,Delivery,Rampur Bushahr,Shimla HQ,Himachal Pradesh,Kalpa(T),Kinnaur,HIMACHAL PRADESH,01786-223131,,,,
Shimla G.P.O. ,171001,H.O,Delivery,Shimla,Shimla HQ,Himachal Pradesh,Shimla Urban(T),Shimla,HIMACHAL PRADESH,0177-2652472,,,,
Nahan H.O,173001,H.O,Delivery,Solan,Shimla HQ,Himachal Pradesh,Nahan,Sirmaur,HIMACHAL PRADESH,01702-222257,,,,
Solan H.O,173212,H.O,Delivery,Solan,Shimla HQ,Himachal Pradesh,Solan,Solan,HIMACHAL PRADESH,01792-223852,,,,
Una H.O,174303,H.O,Delivery,Una,Shimla HQ,Himachal Pradesh,Una,Una,HIMACHAL PRADESH,01975-227407,,,,
Baramulla H.O,193101,H.O,Delivery,Baramulla,Srinagar HQ,Jammukashmir,Baramulla,Baramulla,JAMMU & KASHMIR,01952-234283,,,,
Gandhinagar H.O,180004,H.O,Delivery,Jammu,Srinagar HQ,Jammukashmir,Jammu,Jammu,JAMMU & KASHMIR,0191-2434151,,,,
Jammu H.O,180001,H.O,Delivery,Jammu,Srinagar HQ,Jammukashmir,Jammu,Jammu,JAMMU & KASHMIR,0191-2546147,,,,
Kathua H.O,184101,H.O,Delivery,Jammu,Srinagar HQ,Jammukashmir,Kathua,Kathua,JAMMU & KASHMIR,01922-243774,,,,
Leh H.O,194101,H.O,Delivery,Leh,Srinagar HQ,Jammukashmir,Ladakh,Leh,JAMMU & KASHMIR,01982-252015,,,,
Rajouri H.O,185131,H.O,Delivery,Rajouri,Srinagar HQ,Jammukashmir,Rajouri,Rajauri,JAMMU & KASHMIR,01962-263088,,,,
Anantnag H.O,192101,H.O,Delivery,Srinagar,Srinagar HQ,Jammukashmir,Anantnag Ho,Ananthnag,JAMMU & KASHMIR,01932-222862,,,,
Srinagar G.P.O. ,190001,H.O,Delivery,Srinagar,Srinagar HQ,Jammukashmir,Srinagar,Srinagar,JAMMU & KASHMIR,0194-2452464,,,,
Udhampur H.O,182101,H.O,Delivery,Udhampur,Srinagar HQ,Jammukashmir,Udhampur,Udhampur,JAMMU & KASHMIR,01992-270704,,,,
Bokaro Steel City H.O,827001,H.O,Delivery,Dhanbad,Ranchi,Jharkhand,Bokaro,Bokaro,JHARKHAND,06542-247781,,,,
Dhanbad H.O,826001,H.O,Delivery,Dhanbad,Ranchi,Jharkhand,Dhanbad,Dhanbad,JHARKHAND,0326-2220207,,,,
Giridih H.O,815301,H.O,Delivery,Giridih,Ranchi,Jharkhand,Giridih,Giridh,JHARKHAND,06532-222270,,,,
Hazaribagh H.O,825301,H.O,Delivery,Hazaribagh,Ranchi,Jharkhand,Hazaribagh,Hazaribag,JHARKHAND,06547-276630,,,,
Ramgarh Cantt H.O,829122,H.O,Delivery,Hazaribagh,Ranchi,Jharkhand,Ramgarh Cantt,Ramgarh,JHARKHAND,06553-222001,,,,
Daltonganj H.O,822101,H.O,Delivery,Palamau,Ranchi,Jharkhand,Daltonganj,Palamau,JHARKHAND,06562-222454,,,,
Doranda H.O,834002,H.O,Delivery,Ranchi,Ranchi,Jharkhand,Ranchi,Ranchi,JHARKHAND,0651-2481029,,,,
Gumla H.O,835207,H.O,Delivery,Ranchi,Ranchi,Jharkhand,Gumla,Gumla,JHARKHAND,06524-223005,,,,
Ranchi G.P.O. ,834001,H.O,Delivery,Ranchi,Ranchi,Jharkhand,Ranchi,Ranchi,JHARKHAND,0651-2215112,,,,
B.Deoghar H.O,814112,H.O,Delivery,Santhal Parganas,Ranchi,Jharkhand,Deoghar,Deoghar,JHARKHAND,06432-222307,,,,
Dumka H.O,814101,H.O,Delivery,Santhal Parganas,Ranchi,Jharkhand,Dumka,Dumka,JHARKHAND,06434-227558,,,,
Chaibasa H.O,833201,H.O,Delivery,Singhbhum,Ranchi,Jharkhand,Chaibasa,West Singhbhum,JHARKHAND,06582-256346,,,,
Jamshedpur H.O,831001,H.O,Delivery,Singhbhum,Ranchi,Jharkhand,Jamshedpur,East Singhbhum,JHARKHAND,0657-2423940,,,,
H.A.L II Stage H.O,560008,H.O,Delivery,Bangalore East,Bangalore HQ,Karnataka,Bangalore North,Bangalore,KARNATAKA,080-25270153,,,77.6427,12.9686
R T Nagar H.O,560032,H.O,Delivery,Bangalore East,Bangalore HQ,Karnataka,Bangalore North,Bangalore,KARNATAKA,080-23336825,,,,
Bangalore G.P.O. ,560001,H.O,Delivery,Bangalore GPO,Bangalore HQ,Karnataka,Bangalore North,Bangalore,KARNATAKA,080-22868652,,,77.5955,12.9814
Basavanagudi H.O,560004,H.O,Delivery,Bangalore South,Bangalore HQ,Karnataka,Bangalore South,Bangalore,KARNATAKA,080-26612250,,,77.5741,12.9446
Jayanagar H.O,560041,H.O,Delivery,Bangalore South,Bangalore HQ,Karnataka,Bangalore South,Bangalore,KARNATAKA,080-22440303,,,77.586,12.9237
Jalahalli H.O,560013,H.O,Delivery,Bangalore West,Bangalore HQ,Karnataka,Bangalore North,Bangalore,KARNATAKA,080-28387040,,,77.5539,13.0506
Rajajinagar H.O,560010,H.O,Delivery,Bangalore West,Bangalore HQ,Karnataka,Bangalore North,Bangalore,KARNATAKA,080-23325651,,,77.5545,12.9932
Channapatna H.O,562160,H.O,Delivery,Channapatna,Bangalore HQ,Karnataka,Channapatna,Ramanagar,KARNATAKA,080-7251264,,,77.2027,12.6542
Bagalkot H.O,587101,H.O,Delivery,Bagalkot,North Karnataka,Karnataka,Bagalkot,Bagalkot,KARNATAKA,08354-220230,,,,
Jamkhandi H.O,587301,H.O,Delivery,Bagalkot,North Karnataka,Karnataka,Jamkhandi,Bagalkot,KARNATAKA,08353-220149,,,,
Bailhongal H.O,591102,H.O,Delivery,Belgaum,North Karnataka,Karnataka,Bailhongal,Belgaum,KARNATAKA,08288-233205,,,,
Belgaum H.O,590001,H.O,Delivery,Belgaum,North Karnataka,Karnataka,Belgaum,Belgaum,KARNATAKA,0831-2424897,,,,
Ramdurg H.O,591123,H.O,Delivery,Belgaum,North Karnataka,Karnataka,Ramdurg,Belgaum,KARNATAKA,08335-242091,,,,
Bellary H.O,583101,H.O,Delivery,Bellary,North Karnataka,Karnataka,Bellary,Bellary,KARNATAKA,08392-276036,,,,
Hospet H.O,583201,H.O,Delivery,Bellary,North Karnataka,Karnataka,Hospet,Bellary,KARNATAKA,08394-228210,,,,
Bidar H.O,585401,H.O,Delivery,Bidar,North Karnataka,Karnataka,Bidar,Bidar,KARNATAKA,08482-226403,,,,
Bijapur H.O,586101,H.O,Delivery,Bijapur,North Karnataka,Karnataka,Bijapur,Bijapur(KAR),KARNATAKA,08352-250224,,,,
Athani H.O,591304,H.O,Delivery,Chikodi,North Karnataka,Karnataka,Athani,Belgaum,KARNATAKA,08289-285839,,,,
Chikodi H.O,591201,H.O,Delivery,Chikodi,North Karnataka,Karnataka,Chikodi,Belgaum,KARNATAKA,08338-272329,,,,
Dharwad H.O,580001,H.O,Delivery,Dharwad,North Karnataka,Karnataka,Dharwad,Dharwad,KARNATAKA,0836-2441806,,,,
Hubli H.O,580020,H.O,Delivery,Dharwad,North Karnataka,Karnataka,Hubli,Dharwad,KARNATAKA,0836-2221602,,,,
Gadag H.O,582101,H.O,Delivery,Gadag,North Karnataka,Karnataka,Gadag,Gadag,KARNATAKA,08372-278566,,,,
Koppal H.O,583231,H.O,Delivery,Gadag,North Karnataka,Karnataka,Koppal,Koppal,KARNATAKA,08539-220348,,,,
Gokak H.O,591307,H.O,Delivery,Gokak,North Karnataka,Karnataka,Gokak,Belgaum,KARNATAKA,08332-225133,,,,
Gulbarga H.O,585101,H.O,Delivery,Gulbarga,North Karnataka,Karnataka,Gulbarga,Gulbarga,KARNATAKA,08472-263803,,,,
Yadgiri H.O,585201,H.O,Delivery,Gulbarga,North Karnataka,Karnataka,Yadgiri,Yadgir,KARNATAKA,08473-252309,,,,
Haveri H.O,581110,H.O,Delivery,Haveri,North Karnataka,Karnataka,Haveri,Haveri,KARNATAKA,08375-232213,,,,
Karwar H.O,581301,H.O,Delivery,Karwar,North Karnataka,Karnataka,Karwar,Uttara Kannada,KARNATAKA,08382-221327,,,,
Kumta H.O,581343,H.O,Delivery,Karwar,North Karnataka,Karnataka,Kumta,Uttara Kannada,KARNATAKA,08386-222080,,,,
Raichur H.O,584101,H.O,Delivery,Raichur,North Karnataka,Karnataka,Raichur,Raichur,KARNATAKA,08532-226280,,,,
Sirsi H.O,581401,H.O,Delivery,Sirsi,North Karnataka,Karnataka,Sirsi,Uttara Kannada,KARNATAKA,08384-226326,,,,
Chikmagalur H.O,577101,H.O,Delivery,Chikmagalur,South Karnataka,Karnataka,Chikmagalur,Chickmagalur,KARNATAKA,08262-235417,,,,
Koppa H.O,577126,H.O,Delivery,Chikmagalur,South Karnataka,Karnataka,Koppa,Chickmagalur,KARNATAKA,08265-221009,,,,
Chitradurga H.O,577501,H.O,Delivery,Chitradurga,South Karnataka,Karnataka,Chitradurga,Chitradurga,KARNATAKA,08194-222801,,,,
Davangere H.O,577001,H.O,Delivery,Chitradurga,South Karnataka,Karnataka,Davangere,Davangere,KARNATAKA,08192-257445,,,,
Arsikere H.O,573103,H.O,Delivery,Hassan,South Karnataka,Karnataka,Arsikere,Hassan,KARNATAKA,08174-232314,,,,
Hassan H.O,573201,H.O,Delivery,Hassan,South Karnataka,Karnataka,Hassan,Hassan,KARNATAKA,08172-267091,,,,
Madikeri H.O,571201,H.O,Delivery,Kodagu,South Karnataka,Karnataka,Madikeri,Kodagu,KARNATAKA,08272-225526,,,,
Chickballapur H.O,562101,H.O,Delivery,Kolar,South Karnataka,Karnataka,Chickballapur,Chikkaballapur,KARNATAKA,08156-272640,,,,
Kolar H.O,563101,H.O,Delivery,Kolar,South Karnataka,Karnataka,Kolar,Kolar,KARNATAKA,08152-222031,,,,
Mandya H.O,571401,H.O,Delivery,Mandya,South Karnataka,Karnataka,Mandya,Mandya,KARNATAKA,08232-220130,,,76.923,12.5402
Srirangapatna H.O,571438,H.O,Delivery,Mandya,South Karnataka,Karnataka,Srirangapatna,Mandya,KARNATAKA,08236-252075,,,,
Kulshekar H.O,575005,H.O,Delivery,Mangalore,South Karnataka,Karnataka,Mangalore,Dakshina Kannada,KARNATAKA,0824-2232186,,,,
Mangalore H.O,575001,H.O,Delivery,Mangalore,South Karnataka,Karnataka,Mangalore,Dakshina Kannada,KARNATAKA,0824-2441651,,,,
Mysore H.O,570001,H.O,Delivery,Mysore,South Karnataka,Karnataka,Mysore,Mysore,KARNATAKA,0821-2417303,,,76.6568,12.3117
Saraswathipuram H.O,570009,H.O,Delivery,Mysore,South Karnataka,Karnataka,Mysore,Mysore,KARNATAKA,0821-2417320,,,76.6298,12.3036
Kollegal H.O,571440,H.O,Delivery,Nanjangud,South Karnataka,Karnataka,Kollegal,Chamrajnagar,KARNATAKA,08224-252009,,,,
Nanjangud H.O,571301,H.O,Delivery,Nanjangud,South Karnataka,Karnataka,Nanjangud,Mysore,KARNATAKA,08221-226220,,,76.6797,12.1247
Karkala H.O,574104,H.O,Delivery,Puttur,South Karnataka,Karnataka,Karkala,Udupi,KARNATAKA,08258-230209,,,,
Puttur(D.K.) H.O,574201,H.O,Delivery,Puttur,South Karnataka,Karnataka,Puttur,Dakshina Kannada,KARNATAKA,08251-230090,,,,
Bhadravati H.O,577301,H.O,Delivery,Shimoga,South Karnataka,Karnataka,Bhadravati,Shimoga,KARNATAKA,08282-271745,,,,
Sagar H.O,577401,H.O,Delivery,Shimoga,South Karnataka,Karnataka,Sagar,Shimoga,KARNATAKA,08183-226211,,,,
Shimoga H.O,577201,H.O,Delivery,Shimoga,South Karnataka,Karnataka,Shimoga,Shimoga,KARNATAKA,08182-222207,,,,
Tiptur H.O,572201,H.O,Delivery,Tumkur,South Karnataka,Karnataka,Tiptur,Tumkur,KARNATAKA,08134-250205,,,,
Tumkur H.O,572101,H.O,Delivery,Tumkur,South Karnataka,Karnataka,Tumkur,Tumkur,KARNATAKA,0816-2278443,,,,
Kundapura H.O,576201,H.O,Delivery,Udupi,South Karnataka,Karnataka,Udupi,Udupi,KARNATAKA,08254-230337,,,,
Manipal H.O,576104,H.O,Delivery,Udupi,South Karnataka,Karnataka,Udupi,Udupi,KARNATAKA,0820-2570032,,,,
Udupi H.O,576101,H.O,Delivery,Udupi,South Karnataka,Karnataka,Udupi,Udupi,KARNATAKA,0820-2520217,,,,
Calicut Civil Station H.O,673020,H.O,Delivery,Calicut,Calicut,Kerala,Kozhikode,Kozhikode,KERALA,0495-2370626,,,,
Calicut H.O,673001,H.O,Delivery,Calicut,Calicut,Kerala,Kozhikode,Kozhikode,KERALA,0495-2720164,,,,
Kalpetta H.O,673121,H.O,Delivery,Calicut,Calicut,Kerala,Vythiri,Wayanad,KERALA,04936-203411,,,,
Kannur H.O,670001,H.O,Delivery,Cannanore,Calicut,Kerala,Kannur,Kannur,KERALA,0497-2700190,,,,
Taliparamba H.O,670141,H.O,Delivery,Cannanore,Calicut,Kerala,Taliparamba,Kannur,KERALA,0460-2203119,,,,
Kanhangad H.O,671315,H.O,Delivery,Kasaragod,Calicut,Kerala,Hosdurg,Kasargod,KERALA,04672-204501,,,,
Kasaragod H.O,671121,H.O,Delivery,Kasaragod,Calicut,Kerala,Kasaragod,Kasargod,KERALA,04994-230885,,,,
Malappuram H.O,676505,H.O,Delivery,Manjeri,Calicut,Kerala,Ernad,Malappuram,KERALA,0483-2734880,,,,
Manjeri-kla H.O,676121,H.O,Delivery,Manjeri,Calicut,Kerala,Ernad,Malappuram,KERALA,0483-2766856,,,,
Ottapalam H.O,679101,H.O,Delivery,Ottapalam,Calicut,Kerala,Ottapalam,Palakkad,KERALA,0466-2244229,,,,
Alathur Mbr H.O,678541,H.O,Delivery,Palghat,Calicut,Kerala,Alathur,Palakkad,KERALA,04922-222350,,,,
Olavakkot H.O,678002,H.O,Delivery,Palghat,Calicut,Kerala,Palakkad,Palakkad,KERALA,04912-555119,,,,
Palakkad H.O,678001,H.O,Delivery,Palghat,Calicut,Kerala,Palakkad,Palakkad,KERALA,04912-546876,,,,
Thalassery H.O,670101,H.O,Delivery,Thalassery,Calicut,Kerala,Thalassery,Kannur,KERALA,0490-2321595,,,,
Ponani H.O,679577,H.O,Delivery,Tirur,Calicut,Kerala,Ponnani,Malappuram,KERALA,0494-2666020,,,,
Tirur(kerala) H.O,676101,H.O,Delivery,Tirur,Calicut,Kerala,Tirur,Malappuram,KERALA,0494-2422025,,,,
Koyilandi H.O,673305,H.O,Delivery,Vadakara,Calicut,Kerala,Koyilandi,Kozhikode,KERALA,0496-2620360,,,,
Vadakara H.O,673101,H.O,Delivery,Vadakara,Calicut,Kerala,Vadakara,Kozhikode,KERALA,0496-2522230,,,,
Alappuzha H.O,688001,H.O,Delivery,Alleppey,Kochi,Kerala,Ambalapuzha,Alappuzha,KERALA,0477-2245538,,,,
Cherthala H.O,688524,H.O,Delivery,Alleppey,Kochi,Kerala,Cherthala,Alappuzha,KERALA,0478-2813008,,,,
Aluva H.O,683101,H.O,Delivery,Alwaye,Kochi,Kerala,Aluva,Ernakulam,KERALA,0484-2623213,,,,
Muvattupuzha H.O,686661,H.O,Delivery,Alwaye,Kochi,Kerala,Muvattupuzha,Ernakulam,KERALA,0485-2832379,,,,
Perumbavoor H.O,683542,H.O,Delivery,Alwaye,Kochi,Kerala,Kunnathunad,Ernakulam,KERALA,0484-2525399,,,,
Changanacherry H.O,686101,H.O,Delivery,Changanacherry,Kochi,Kerala,Changanacherry,Kottayam,KERALA,0481-2421756,,,,
Kanjirapally H.O,686507,H.O,Delivery,Changanacherry,Kochi,Kerala,Kanjirappally,Kottayam,KERALA,04828-202598,,,,
Ernakulam H.O,682011,H.O,Delivery,Ernakulam,Kochi,Kerala,Ernakulam,Ernakulam,KERALA,0484-2355467,,,,
Kochi H.O,682001,H.O,Delivery,Ernakulam,Kochi,Kerala,Kochi,Ernakulam,KERALA,0484-2261388,,,,
Kattappana H.O,685508,H.O,Delivery,Idukki,Kochi,Kerala,Udumbanchola,Idukki,KERALA,04868-272392,,,,
Thodupuzha H.O,685584,H.O,Delivery,Idukki,Kochi,Kerala,Thodupuzha,Idukki,KERALA,04862-222286,,,,
Chalakudi H.O,680307,H.O,Delivery,Irinjalakuda,Kochi,Kerala,Mukundapuram Taluk,Thrissur,KERALA,0480-2702873,,,,
Irinjalakuda H.O,680121,H.O,Delivery,Irinjalakuda,Kochi,Kerala,Mukundapuram Taluk,Thrissur,KERALA,0480-2820197,,,,
Kottayam H.O,686001,H.O,Delivery,Kottayam,Kochi,Kerala,Kottayam,Kottayam,KERALA,0481-2567568,,,,
Palai H.O,686575,H.O,Delivery,Kottayam,Kochi,Kerala,Meenachil,Kottayam,KERALA,04822-212239,,,,
Vaikom H.O,686141,H.O,Delivery,Kottayam,Kochi,Kerala,Vaikom,Kottayam,KERALA,04829-231245,,,,
Kayangulam H.O,690502,H.O,Delivery,Mavelikara,Kochi,Kerala,Karthikappally,Alappuzha,KERALA,0479-2443496,,,,
Mavelikara H.O,690101,H.O,Delivery,Mavelikara,Kochi,Kerala,Mavelikara,Alappuzha,KERALA,0479-2302266,,,,
Kunnamkulam H.O,680503,H.O,Delivery,Trichur,Kochi,Kerala,,Thrissur,KERALA,04885-222276,,,,
Thrissur H.O,680001,H.O,Delivery,Trichur,Kochi,Kerala,Thrissur,Thrissur,KERALA,0487-2422400,,,,
Wadakanchery-TC H.O,680582,H.O,Delivery,Trichur,Kochi,Kerala,Thalapilly,Thrissur,KERALA,04884-232276,,,,
Adur( Kla) H.O,691523,H.O,Delivery,Pathanamthitta,Trivandrum  HQ,Kerala,Adur,Pathanamthitta,KERALA,04734-224770,,,,
Pathanamthitta H.O,689645,H.O,Delivery,Pathanamthitta,Trivandrum  HQ,Kerala,Kozhencherry,Pathanamthitta,KERALA,0468-2222328,,,,
Punalur H.O,691305,H.O,Delivery,Pathanamthitta,Trivandrum  HQ,Kerala,Pathanapuram,Kollam,KERALA,0475-2222494,,,,
Karunagappaly H.O,690518,H.O,Delivery,Quilon,Trivandrum  HQ,Kerala,Karunagappaly,Kollam,KERALA,0476-2630406,,,,
Kollam H.O,691001,H.O,Delivery,Quilon,Trivandrum  HQ,Kerala,Kollam,Kollam,KERALA,0474-2751918,,,,
Kottarakara H.O,691506,H.O,Delivery,Quilon,Trivandrum  HQ,Kerala,Kottarakara,Kollam,KERALA,0474-2454737,,,,
Chengannur H.O,689121,H.O,Delivery,Tiruvalla,Trivandrum  HQ,Kerala,Chengannur,Alappuzha,KERALA,0479-2452695,,,,
Tiruvalla H.O,689101,H.O,Delivery,Tiruvalla,Trivandrum  HQ,Kerala,Tiruvalla,Pathanamthitta,KERALA,0469-2602581,,,,
Attingal H.O,695101,H.O,Delivery,Trivandrum North,Trivandrum  HQ,Kerala,Chirayinkeezhu,Thiruvananthapuram,KERALA,0470-2622250,,,,
Thiruvananthapuram G.P.O. ,695001,H.O,Delivery,Trivandrum North,Trivandrum  HQ,Kerala,Thiruvananthapuram,Thiruvananthapuram,KERALA,0471-2473071,,,,
Neyyattinkara H.O,695121,H.O,Delivery,Trivandrum South,Trivandrum  HQ,Kerala,Neyyattinkara,Thiruvananthapuram,KERALA,0471-2222340,,,,
Poojapura H.O,695012,H.O,Delivery,Trivandrum South,Trivandrum  HQ,Kerala,Thiruvananthapuram,Thiruvananthapuram,KERALA,0471-2351473,,,,
Balaghat H.O,481001,H.O,Delivery,Balaghat,Bhopal HQ,Madhya Pradesh,Balaghat,Balaghat,MADHYA PRADESH,07632-241182,,,,
Mandla H.O,481661,H.O,Delivery,Balaghat,Bhopal HQ,Madhya Pradesh,Mandla,Mandla,MADHYA PRADESH,07642-250796,,,,
Seoni H.O,480661,H.O,Delivery,Balaghat,Bhopal HQ,Madhya Pradesh,Seoni,Seoni,MADHYA PRADESH,07692-220292,,,,
Bhel H.O,462022,H.O,Delivery,Bhopal,Bhopal HQ,Madhya Pradesh,Huzur,Bhopal,MADHYA PRADESH,0755-2673244,,,,
Bhopal G.P.O. ,462001,H.O,Delivery,Bhopal,Bhopal HQ,Madhya Pradesh,Huzur,Bhopal,MADHYA PRADESH,0755-2673272,,,,
C.T.T.Nagar H.O,462003,H.O,Delivery,Bhopal,Bhopal HQ,Madhya Pradesh,Huzur,Bhopal,MADHYA PRADESH,0755-2673231,,,,
Chhatarpur H.O,471001,H.O,Delivery,Chhatarpur,Bhopal HQ,Madhya Pradesh,Chhatarpur,Chhatarpur,MADHYA PRADESH,07682-246161,,,,
Tikamgarh H.O,472001,H.O,Delivery,Chhatarpur,Bhopal HQ,Madhya Pradesh,Tikamgarh,Tikamgarh,MADHYA PRADESH,07683-242402,,,,
Betul H.O,460001,H.O,Delivery,Chhindwara,Bhopal HQ,Madhya Pradesh,Betul,Betul,MADHYA PRADESH,01741-231491,,,,
Chhindwara H.O,480001,H.O,Delivery,Chhindwara,Bhopal HQ,Madhya Pradesh,Chhindwara,Chhindwara,MADHYA PRADESH,07162-247892,,,,
Hoshangabad H.O,461001,H.O,Delivery,Hoshangabad,Bhopal HQ,Madhya Pradesh,Hoshangabad,Hoshangabad,MADHYA PRADESH,07574-252398,,,,
Narsinghpur H.O,487001,H.O,Delivery,Hoshangabad,Bhopal HQ,Madhya Pradesh,Narsinghpur Ho,Narsinghpur,MADHYA PRADESH,07792-230604,,,,
Rewa H.O,486001,H.O,Delivery,Rewa,Bhopal HQ,Madhya Pradesh,Huzur,Rewa,MADHYA PRADESH,02004-7662256,,,,
Satna H.O,485001,H.O,Delivery,Rewa,Bhopal HQ,Madhya Pradesh,Raghurajnagar,Satna,MADHYA PRADESH,07672-230351,,,,
Damoh H.O,470661,H.O,Delivery,Sagar,Bhopal HQ,Madhya Pradesh,Damoh,Damoh,MADHYA PRADESH,07812-222106,,,,
Sagar Cantt H.O,470001,H.O,Delivery,Sagar,Bhopal HQ,Madhya Pradesh,Sagar,Sagar,MADHYA PRADESH,07582-222547,,,,
Shahdol H.O,484001,H.O,Delivery,Shahdol,Bhopal HQ,Madhya Pradesh,Sohagpur,Shahdol,MADHYA PRADESH,07652-245242,,,,
Sidhi H.O,486661,H.O,Delivery,Shahdol,Bhopal HQ,Madhya Pradesh,Gopadvanas,Sidhi,MADHYA PRADESH,07822-252202,,,,
Raisen H.O,464551,H.O,Delivery,Vidisha,Bhopal HQ,Madhya Pradesh,Raisen,Raisen,MADHYA PRADESH,07482-222072,,,,
Vidisha H.O,464001,H.O,Delivery,Vidisha,Bhopal HQ,Madhya Pradesh,Vidisha,Vidisha,MADHYA PRADESH,07592-232022,,,,
Ashoknagar H.O,473331,H.O,Delivery,Guna,Gwalior,Madhya Pradesh,Ashoknagar,Guna,MADHYA PRADESH,07543-222726,,,,
Guna H.O,473001,H.O,Delivery,Guna,Gwalior,Madhya Pradesh,Guna,Guna,MADHYA PRADESH,07542-255212,,,,
Shivpuri H.O,473551,H.O,Delivery,Guna,Gwalior,Madhya Pradesh,Shivpuri,Shivpuri,MADHYA PRADESH,07492-233386,,,,
Lashkar H.O,474001,H.O,Delivery,Gwalior,Gwalior,Madhya Pradesh,Gird,Gwalior,MADHYA PRADESH,0751-2454520,,,,
Morar H.O,474006,H.O,Delivery,Gwalior,Gwalior,Madhya Pradesh,Gird,Gwalior,MADHYA PRADESH,0751-2443172,,,,
Bhind H.O,477001,H.O,Delivery,Morena,Gwalior,Madhya Pradesh,Bhind,Bhind,MADHYA PRADESH,07534-230122,,,,
Morena H.O,476001,H.O,Delivery,Morena,Gwalior,Madhya Pradesh,Morena,Morena,MADHYA PRADESH,07532-226305,,,,
Indore G.P.O. ,452001,H.O,Delivery,Indore City,Indore,Madhya Pradesh,Indore,Indore,MADHYA PRADESH,0731-2700023,,,,
Indore Nagar H.O,452007,H.O,Delivery,Indore City,Indore,Madhya Pradesh,Indore,Indore,MADHYA PRADESH,0731-2535813,,,,
Dewas H.O,455001,H.O,Delivery,Indore Moffusil,Indore,Madhya Pradesh,Dewas,Dewas,MADHYA PRADESH,07272-222094,,,,
Dhar H.O,454001,H.O,Delivery,Indore Moffusil,Indore,Madhya Pradesh,Dhar,Dhar,MADHYA PRADESH,07292-222350,,,,
Jabalpur H.O,482001,H.O,Delivery,Jabalpur,Indore,Madhya Pradesh,,Jabalpur,MADHYA PRADESH,0761-2626350,,,,
Katni H.O,483501,H.O,Delivery,Jabalpur,Indore,Madhya Pradesh,Murwara,Katni,MADHYA PRADESH,07622-230465,,,,
Khandwa H.O,450001,H.O,Delivery,Khandwa,Indore,Madhya Pradesh,Khandwa,East Nimar,MADHYA PRADESH,0733-2222352,,,,
Khargone H.O,451001,H.O,Delivery,Khandwa,Indore,Madhya Pradesh,Khargone,West Nimar,MADHYA PRADESH,07282-231312,,,,
Mandsaur H.O,458001,H.O,Delivery,Mandsaur,Indore,Madhya Pradesh,Mandsaur,Mandsaur,MADHYA PRADESH,07422-242279,,,,
Neemuch H.O,458441,H.O,Delivery,Mandsaur,Indore,Madhya Pradesh,Neemuch,Neemuch,MADHYA PRADESH,07423-223050,,,,
Jhabua H.O,457661,H.O,Delivery,Ratlam,Indore,Madhya Pradesh,Jhabua,Jhabua,MADHYA PRADESH,07392-244217,,,,
Ratlam H.O,457001,H.O,Delivery,Ratlam,Indore,Madhya Pradesh,Ratlam,Ratlam,MADHYA PRADESH,07412-236209,,,,
Rajgarh(Bia) H.O,465661,H.O,Delivery,Sehore,Indore,Madhya Pradesh,,Rajgarh,MADHYA PRADESH,07372-255042,,,,
Sehore H.O,466001,H.O,Delivery,Sehore,Indore,Madhya Pradesh,Sehore,Sehore,MADHYA PRADESH,07562-224294,,,,
Shajapur H.O,465001,H.O,Delivery,Ujjain,Indore,Madhya Pradesh,Shajapur,Shajapur,MADHYA PRADESH,07364-226471,,,,
Ujjain H.O,456001,H.O,Delivery,Ujjain,Indore,Madhya Pradesh,Ujjain,Ujjain,MADHYA PRADESH,0734-2551024,,,,
Aurangabad (MH) H.O,431001,H.O,Delivery,Aurangabad(Maharashtra),Aurangabad,Maharashtra,Aurangabad,Aurangabad,MAHARASHTRA,0240-2331031,,,,
Jalna H.O,431203,H.O,Delivery,Aurangabad(Maharashtra),Aurangabad,Maharashtra,Jalna,Jalna,MAHARASHTRA,02482-232925,,,,
Beed H.O,431122,H.O,Delivery,Beed,Aurangabad,Maharashtra,Beed,Beed,MAHARASHTRA,02442-222376,,,,
Bhusawal H.O,425201,H.O,Delivery,Bhusaval,Aurangabad,Maharashtra,Bhusawal,Jalgaon,MAHARASHTRA,02582-222424,,,,
Dhule H.O,424001,H.O,Delivery,Dhule,Aurangabad,Maharashtra,Dhule,Dhule,MAHARASHTRA,02562-234909,,,,
Chalisgaon H.O,424101,H.O,Delivery,Jalgaon,Aurangabad,Maharashtra,Chalisgaon,Jalgaon,MAHARASHTRA,02589-222169,,,,
Jalgaon H.O,425001,H.O,Delivery,Jalgaon,Aurangabad,Maharashtra,Jalgaon,Jalgaon,MAHARASHTRA,0257-2237247,,,,
Malegaon H.O,423203,H.O,Delivery,Malegaon,Aurangabad,Maharashtra,Malegaon,Nashik,MAHARASHTRA,02554-235964,,,,
Nanded H.O,431601,H.O,Delivery,Nanded,Aurangabad,Maharashtra,Nanded,Nanded,MAHARASHTRA,02462-232833,,,,
Nashik H.O,422001,H.O,Delivery,Nasik,Aurangabad,Maharashtra,Nashik,Nashik,MAHARASHTRA,0253-2506647,,,,
Nashik Road H.O,422101,H.O,Delivery,Nasik,Aurangabad,Maharashtra,Nashik,Nashik,MAHARASHTRA,0253-2465334,,,,
Latur H.O,413512,H.O,Delivery,Osmanabad,Aurangabad,Maharashtra,Latur,Latur,MAHARASHTRA,02382-242680,,,,
Osmanabad H.O,413501,H.O,Delivery,Osmanabad,Aurangabad,Maharashtra,Osmanabad,Osmanabad,MAHARASHTRA,02472-222294,,,,
Parbhani H.O,431401,H.O,Delivery,Pharbhani,Aurangabad,Maharashtra,Parbhani,Parbhani,MAHARASHTRA,02452-228600,,,,
Margao H.O,403601,H.O,Delivery,Goa,Goa-Panaji,Maharashtra,Salcette,South Goa,GOA,0832-2715791,,,,
Panaji H.O,403001,H.O,Delivery,Goa,Goa-Panaji,Maharashtra,Tiswadi,North Goa,GOA,0832-2223704,,,,
Ichalkaranji H.O,416115,H.O,Delivery,Kolhapur,Goa-Panaji,Maharashtra,Hatkanangle,Kolhapur,MAHARASHTRA,0230-2420483,,,,
Kolhapur City H.O,416012,H.O,Delivery,Kolhapur,Goa-Panaji,Maharashtra,Karvir,Kolhapur,MAHARASHTRA,0231-2628005,,,,
Kolhapur H.O,416003,H.O,Delivery,Kolhapur,Goa-Panaji,Maharashtra,Karvir,Kolhapur,MAHARASHTRA,0231-2656830,,,,
Chiplun H.O,415605,H.O,Delivery,Ratnagiri,Goa-Panaji,Maharashtra,Chiplun,Ratnagiri,MAHARASHTRA,02355-261700,,,,
Ratnagiri H.O,415612,H.O,Delivery,Ratnagiri,Goa-Panaji,Maharashtra,Ratnagiri,Ratnagiri,MAHARASHTRA,02352-221247,,,,
Miraj H.O,416410,H.O,Delivery,Sangli,Goa-Panaji,Maharashtra,Miraj,Sangli,MAHARASHTRA,0233-2225480,,,,
Sangli H.O,416416,H.O,Delivery,Sangli,Goa-Panaji,Maharashtra,Miraj,Sangli,MAHARASHTRA,0233-2331022,,,,
Malvan H.O,416606,H.O,Delivery,Sindhudurg,Goa-Panaji,Maharashtra,Malvan,Sindhudurg,MAHARASHTRA,02365-251136,,,,
Sawantwadi H.O,416510,H.O,Delivery,Sindhudurg,Goa-Panaji,Maharashtra,Sawantwadi,Sindhudurg,MAHARASHTRA,02363-272161,,,,
Chinchbunder H.O,400009,H.O,Delivery,Mumbai  East,Mumbai,Maharashtra,,Mumbai,MAHARASHTRA,022-23771116,,,,
Dadar H.O,400014,H.O,Delivery,Mumbai  East,Mumbai,Maharashtra,Mumbai,Mumbai,MAHARASHTRA,022-24168410,,,,
Andheri H.O,400053,H.O,Non-Delivery,Mumbai  North,Mumbai,Maharashtra,Mumbai,Mumbai,MAHARASHTRA,022-26703985,,,,
Chembur H.O,400071,H.O,Delivery,Mumbai  North East,Mumbai,Maharashtra,,Mumbai,MAHARASHTRA,022-25275421,,,,
Borivali H.O,400091,H.O,Delivery,Mumbai  North West,Mumbai,Maharashtra,Borivali West,Mumbai,MAHARASHTRA,022-28687256,,,,
Kalbadevi H.O,400002,H.O,Delivery,Mumbai  South,Mumbai,Maharashtra,Mumbai,Mumbai,MAHARASHTRA,022-22057587,,,,
Mahim H.O,400016,H.O,Delivery,Mumbai  West,Mumbai,Maharashtra,Mumbai,Mumbai,MAHARASHTRA,022-24457011,,,,
Mumbai Central H.O,400008,H.O,Delivery,Mumbai  West,Mumbai,Maharashtra,Mumbai,Mumbai,MAHARASHTRA,022-23017296,,,,
Mumbai G.P.O. ,400001,H.O,Delivery,Mumbai G.P.O.,Mumbai,Maharashtra,Mumbai,Mumbai,MAHARASHTRA,022-22620693,,,,
Panvel H.O,410206,H.O,Delivery,New Mumbai,Mumbai,Maharashtra,Panvel,Raigarh(MH),MAHARASHTRA,022-27469214,,,,
Alibag H.O,402201,H.O,Delivery,Raigad,Mumbai,Maharashtra,Alibag,Raigarh(MH),MAHARASHTRA,02141-227899,,,,
Kalyan City H.O,421301,H.O,Non-Delivery,Thane Central,Mumbai,Maharashtra,Kalyan,Thane,MAHARASHTRA,0251-2203439,,,,
Thane H.O,400601,H.O,Delivery,Thane Central,Mumbai,Maharashtra,Thane,Thane,MAHARASHTRA,022-25476356,,,,
Palghar H.O,401404,H.O,Delivery,Thane West,Mumbai,Maharashtra,Palghar,Thane,MAHARASHTRA,02525-252092,,,,
Akola H.O,444001,H.O,Delivery,Akola,Nagpur,Maharashtra,Akola,Akola,MAHARASHTRA,0724-2436931,,,,
Amravati H.O,444601,H.O,Delivery,Amaravati,Nagpur,Maharashtra,Amravati,Amravati,MAHARASHTRA,0721-2672055,,,,
Paratwada H.O,444805,H.O,Delivery,Amaravati,Nagpur,Maharashtra,Paratwada,Amravati,MAHARASHTRA,07223-227191,,,,
Buldana H.O,443001,H.O,Delivery,Buldana,Nagpur,Maharashtra,Buldana,Buldhana,MAHARASHTRA,07262-242588,,,,
Khamgaon H.O,444303,H.O,Delivery,Buldana,Nagpur,Maharashtra,Khamgaon,Buldhana,MAHARASHTRA,07263-252106,,,,
Chandrapur H.O,442401,H.O,Delivery,Chandrapur,Nagpur,Maharashtra,Chandrapur Ho,Chandrapur,MAHARASHTRA,07172-255297,,,,
Nagpur City H.O,440002,H.O,Delivery,Nagpur City,Nagpur,Maharashtra,Nagpur,Nagpur,MAHARASHTRA,0712-2765420,,,,
Nagpur GPO,440001,H.O,Delivery,Nagpur City,Nagpur,Maharashtra,Nagpur,Nagpur,MAHARASHTRA,0712-2560170,,,,
Bhandara H.O,441904,H.O,Delivery,Nagpur Moffusil,Nagpur,Maharashtra,Bhandara,Bhandara,MAHARASHTRA,07184-252248,,,,
Gondia H.O,441601,H.O,Delivery,Nagpur Moffusil,Nagpur,Maharashtra,Gondia,Gondia,MAHARASHTRA,07182-223080,,,,
Kamthi H.O,441001,H.O,Delivery,Nagpur Moffusil,Nagpur,Maharashtra,Kamthi,Nagpur,MAHARASHTRA,07109-288648,,,,
Wardha H.O,442001,H.O,Delivery,Wardha,Nagpur,Maharashtra,Wardha,Wardha,MAHARASHTRA,07152-243499,,,,
Yavatmal H.O,445001,H.O,Delivery,Yeotmal,Nagpur,Maharashtra,Yavatmal,Yavatmal,MAHARASHTRA,07232-243263,,,,
Ahmednagar H.O,414001,H.O,Delivery,Ahmednagar,Pune,Maharashtra,Ahmednagar,Ahmed Nagar,MAHARASHTRA,0241-2355036,,,,
Pandharpur H.O,413304,H.O,Delivery,Pandharpur,Pune,Maharashtra,Pandharpur,Solapur,MAHARASHTRA,02186-223410,,,,
Pune H.O,411001,H.O,Delivery,Pune City East,Pune,Maharashtra,Pune City,Pune,MAHARASHTRA,020-26125516,,,,
Pune City H.O,411002,H.O,Delivery,Pune City West,Pune,Maharashtra,Pune City,Pune,MAHARASHTRA,020-24466660,,,,
Shivajinagar H.O,411005,H.O,Non-Delivery,Pune Moffusil,Pune,Maharashtra,Haveli,Pune,MAHARASHTRA,020-25534929,,,,
Karad H.O,415110,H.O,Delivery,Satara,Pune,Maharashtra,Karad,Satara,MAHARASHTRA,02164-222091,,,,
Satara H.O,415001,H.O,Delivery,Satara,Pune,Maharashtra,Satara,Satara,MAHARASHTRA,02162-237495,,,,
Shrirampur H.O,413709,H.O,Delivery,Shrirampur,Pune,Maharashtra,Shrirampur,Ahmed Nagar,MAHARASHTRA,02422-222327,,,,
Solapur H.O,413001,H.O,Delivery,Solapur,Pune,Maharashtra,Solapur North,Solapur,MAHARASHTRA,0217-2621082,,,,
Imphal H.O,795001,H.O,Delivery,Manipur,North Eastern,North Eastern,Nil,Imphal West,MANIPUR,0385-2450146,,,,
Aizawl H.O,796001,H.O,Delivery,Mizoram,North Eastern,North Eastern,Tlangnuam (Part),Aizawl,MIZORAM,0389-2328023,,,,
Kohima H.O,797001,H.O,Delivery,Nagaland,North Eastern,North Eastern,Kohima,Kohima,NAGALAND,0370-2290929,,,,
Agartala H.O,799001,H.O,Delivery,Agartala,Shillong HQ,North Eastern,Sadar,West Tripura,TRIPURA,0381-2325489,,,,
Radhakishorepur H.O,799120,H.O,Delivery,Agartala,Shillong HQ,North Eastern,Radhakishorepur,South Tripura,TRIPURA,03821-222405,,,,
Itanagar H.O,791111,H.O,Delivery,Arunachal Pradesh,Shillong HQ,North Eastern,Itanagar,Papum Pare,ARUNACHAL PRADESH,0360-2291407,,,,
Dharmanagar H.O,799250,H.O,Delivery,Dharmanagar,Shillong HQ,North Eastern,Dharmanagar,North Tripura,TRIPURA,03822-234517,,,,
Shillong G.P.O. ,793001,H.O,Delivery,Meghalaya,Shillong HQ,North Eastern,Shillong,East Khasi Hills,MEGHALAYA,0364-2222179,,,,
Tura H.O,794001,H.O,Delivery,Meghalaya,Shillong HQ,North Eastern,Tura,West Garo Hills,MEGHALAYA,03651-223790,,,,
Aska H.O,761110,H.O,Delivery,Aska,Berhampur,Odisha,Aska,Ganjam,ODISHA,06822-273611,,,,
Bhanjanagar H.O,761126,H.O,Delivery,Aska,Berhampur,Odisha,Bhanjanagar,Ganjam,ODISHA,06821-241088,,,,
Berhampur(GM) H.O,760001,H.O,Delivery,Berhampur,Berhampur,Odisha,Brahmapur Sadar,Ganjam,ODISHA,0680-2222884,,,,
Chatrapur H.O,761020,H.O,Delivery,Berhampur,Berhampur,Odisha,Chatrapur,Ganjam,ODISHA,06811-263961,,,,
Parlakhemundi H.O,761200,H.O,Delivery,Berhampur,Berhampur,Odisha,Parlakhemundi,Gajapati,ODISHA,06815-222266,,,,
Bhawanipatna H.O,766001,H.O,Delivery,Kalahandi,Berhampur,Odisha,Kesinga,Kalahandi,ODISHA,06670-230571,,,,
Jeypore(K) H.O,764001,H.O,Delivery,Koraput,Berhampur,Odisha,Jeypore(k),Koraput,ODISHA,06854-233001,,,,
Koraput H.O,764020,H.O,Delivery,Koraput,Berhampur,Odisha,Koraput,Koraput,ODISHA,06852-250251,,,,
Rayagada(K) H.O,765001,H.O,Delivery,Koraput,Berhampur,Odisha,Rayagada(k),Rayagada,ODISHA,06856-235955,,,,
Phulbani H.O,762001,H.O,Delivery,Phulbani,Berhampur,Odisha,Phulbani,Kandhamal,ODISHA,06842-253642,,,,
Balasore H.O,756001,H.O,Delivery,Balasore,Bhubaneswar HQ,Odisha,Balasore,Baleswar,ODISHA,06782-262310,,,,
Jaleswar H.O,756032,H.O,Delivery,Balasore,Bhubaneswar HQ,Odisha,Jaleswar,Baleswar,ODISHA,06781-222294,,,,
Bhadrak H.O,756100,H.O,Delivery,Bhadrak,Bhubaneswar HQ,Odisha,Bhadrak Rural,Bhadrak,ODISHA,06784-251691,,,,
Bhubaneswar G.P.O. ,751001,H.O,Delivery,Bhubaneswar,Bhubaneswar HQ,Odisha,Bhubaneswar,Khorda,ODISHA,0674-2390165,,,,
Chandinchowk H.O,753002,H.O,Delivery,Cuttack City,Bhubaneswar HQ,Odisha,Cuttack Sadar,Cuttack,ODISHA,0671-2607015,,,,
Cuttack G.P.O. ,753001,H.O,Delivery,Cuttack City,Bhubaneswar HQ,Odisha,Cuttack Sadar,Cuttack,ODISHA,0671-2620820,,,,
Jajpur H.O,755001,H.O,Delivery,Cuttack North,Bhubaneswar HQ,Odisha,Jajpur,Jajapur,ODISHA,06728-222164,,,,
Kendrapara H.O,754211,H.O,Delivery,Cuttack North,Bhubaneswar HQ,Odisha,Kendrapara,Kendrapara,ODISHA,06727-232210,,,,
Athagarh H.O,754029,H.O,Delivery,Cuttack South,Bhubaneswar HQ,Odisha,Athagarh,Cuttack,ODISHA,06723-220219,,,,
Jagatsinghpur H.O,754103,H.O,Delivery,Cuttack South,Bhubaneswar HQ,Odisha,Jagatsinghpur,Jagatsinghapur,ODISHA,06724-220026,,,,
Baripada H.O,757001,H.O,Delivery,Mayurbhanj,Bhubaneswar HQ,Odisha,Baripada,Mayurbhanj,ODISHA,06792-252678,,,,
Rairangpur H.O,757043,H.O,Delivery,Mayurbhanj,Bhubaneswar HQ,Odisha,Rairangpur,Mayurbhanj,ODISHA,06794-222128,,,,
Khurda H.O,752055,H.O,Delivery,Puri,Bhubaneswar HQ,Odisha,Khurda,Khorda,ODISHA,06755-220587,,,,
Nayagarh H.O,752069,H.O,Delivery,Puri,Bhubaneswar HQ,Odisha,Nayagarh,Nayagarh,ODISHA,06753-252219,,,,
Puri H.O,752001,H.O,Delivery,Puri,Bhubaneswar HQ,Odisha,Puri,Puri,ODISHA,06752-222051,,,,
Balangir H.O,767001,H.O,Delivery,Balangir,Sambalpur,Odisha,Balangir,Balangir,ODISHA,06652-232376,,,,
Angul H.O,759122,H.O,Delivery,Dhenkanal,Sambalpur,Odisha,Angul,Angul,ODISHA,06764-230595,,,,
Dhenkanal H.O,759001,H.O,Delivery,Dhenkanal,Sambalpur,Odisha,Dhenkanal,Dhenkanal,ODISHA,06762-226542,,,,
Keonjhargarh H.O,758001,H.O,Delivery,Keonjhar,Sambalpur,Odisha,Keonjhar,Kendujhar,ODISHA,06766-255513,,,,
Bargarh H.O,768028,H.O,Delivery,Sambalpur,Sambalpur,Odisha,Bargarh,Bargarh,ODISHA,06646-232824,,,,
Jharsuguda H.O,768201,H.O,Delivery,Sambalpur,Sambalpur,Odisha,Jharsuguda,Jharsuguda,ODISHA,06645-272430,,,,
Sambalpur H.O,768001,H.O,Delivery,Sambalpur,Sambalpur,Odisha,Sadar,Sambalpur,ODISHA,0663-2410965,,,,
Rourkela H.O,769001,H.O,Delivery,Sundargarh,Sambalpur,Odisha,Raurkela (M),Sundergarh,ODISHA,0661-2600698,,,,
Sundargarh H.O,770001,H.O,Delivery,Sundargarh,Sambalpur,Odisha,Sundargarh    ,Sundergarh,ODISHA,06622-272241,,,,
Uditnagar H.O,769012,H.O,Delivery,Sundargarh,Sambalpur,Odisha,Raghunathapali,Sundergarh,ODISHA,0661-2522212,,,,
Chandigarh G.P.O. ,160017,H.O,Delivery,Chandigarh,Chandigarh HQ,Punjab,Chandigarh,Chandigarh,CHANDIGARH,0172-2703716,,,,
Ropar H.O,140001,H.O,Delivery,Chandigarh,Chandigarh HQ,Punjab,Rupnagar,Rupnagar,PUNJAB,01881-221121,,,,
Ludhiana H.O,141001,H.O,Delivery,Ludhiana City,Chandigarh HQ,Punjab,Bharat Nagar Chowk,Ludhiana,PUNJAB,0161-2774004,,,,
Jagraon H.O,142026,H.O,Delivery,Ludhiana Moffusil,Chandigarh HQ,Punjab,Jagraon,Ludhiana,PUNJAB,01624-222357,,,,
Khanna H.O,141401,H.O,Delivery,Ludhiana Moffusil,Chandigarh HQ,Punjab,Khanna,Ludhiana,PUNJAB,01628-236244,,,,
Patiala H.O,147001,H.O,Delivery,Patiala,Chandigarh HQ,Punjab,Patiala,Patiala,PUNJAB,0175-2301697,,,,
Rajpura H.O,140401,H.O,Delivery,Patiala,Chandigarh HQ,Punjab,Rajpura,Patiala,PUNJAB,01762-243191,,,,
Sangrur H.O,148001,H.O,Delivery,Sangrur,Chandigarh HQ,Punjab,Sangrur,Sangrur,PUNJAB,01672-234377,,,,
Amritsar G.P.O. ,143001,H.O,Delivery,Amritsar,Chandigarh Region,Punjab,Amritsar,Amritsar,PUNJAB,0183-2400785,,,,
Tarn Taran H.O,143401,H.O,Delivery,Amritsar,Chandigarh Region,Punjab,,Tarn Taran,PUNJAB,01852-222533,,,,
Bathinda H.O,151001,H.O,Delivery,Bhatinda,Chandigarh Region,Punjab,Bathinda,Bathinda,PUNJAB,0164-2212693,,,,
Faridkot H.O,151203,H.O,Delivery,Faridkot,Chandigarh Region,Punjab,Faridkot,Faridkot,PUNJAB,01639-256384,,,,
Moga H.O,142001,H.O,Delivery,Faridkot,Chandigarh Region,Punjab,Moga,Moga,PUNJAB,01636-222367,,,,
Ferozepur H.O,152001,H.O,Delivery,Ferozpur,Chandigarh Region,Punjab,Ferozepur,Firozpur,PUNJAB,01632-245334,,,,
Batala H.O,143505,H.O,Delivery,Gurdaspur,Chandigarh Region,Punjab,Batala,Gurdaspur,PUNJAB,01871-240183,,,,
Gurdaspur H.O,143521,H.O,Delivery,Gurdaspur,Chandigarh Region,Punjab,Gurdaspur,Gurdaspur,PUNJAB,01874-241635,,,,
Dasuya H.O,144205,H.O,Delivery,Hoshiarpur,Chandigarh Region,Punjab,Dasuya,Hoshiarpur,PUNJAB,01883-285077,,,,
Hoshiarpur H.O,146001,H.O,Delivery,Hoshiarpur,Chandigarh Region,Punjab,Gurdaspur,Hoshiarpur,PUNJAB,01882-220141,,,,
Jalandhar Cantt H.O,144005,H.O,Delivery,Jalandhar,Chandigarh Region,Punjab,Jalandhar,Jalandhar,PUNJAB,0181-2260240,,,,
Jalandhar City H.O,144001,H.O,Delivery,Jalandhar,Chandigarh Region,Punjab,Jalandhar - I,Jalandhar,PUNJAB,0181-2459850,,,,
Kapurthala H.O,144601,H.O,Delivery,Kapurthala,Chandigarh Region,Punjab,Kapurthala,Kapurthala,PUNJAB,01822-232421,,,,
Phagwara H.O,144401,H.O,Delivery,Kapurthala,Chandigarh Region,Punjab,Phagwara,Kapurthala,PUNJAB,01824-260786,,,,
Ajmer H.O,305001,H.O,Delivery,Ajmer,Ajmer,Rajasthan,Ajmer,Ajmer,RAJASTHAN,0145-2429437,,,,
Madanganj Kishangarh H.O,305801,H.O,Delivery,Ajmer,Ajmer,Rajasthan,Kishangarh,Ajmer,RAJASTHAN,0145-242300,,,,
Beawar [Raj] H.O,305901,H.O,Delivery,Beawar,Ajmer,Rajasthan,Beawar,Ajmer,RAJASTHAN,01462-257440,,,,
Nasirabad H.O,305601,H.O,Delivery,Beawar,Ajmer,Rajasthan,Nasirabad,Ajmer,RAJASTHAN,01491-220003,,,,
Bhilwara H.O,311001,H.O,Delivery,Bhilwara,Ajmer,Rajasthan,Bhilwara,Bhilwara,RAJASTHAN,01482-220347,,,,
Chittorgarh H.O,312001,H.O,Delivery,Chittorgarh,Ajmer,Rajasthan,Chittorgarh,Chittorgarh,RAJASTHAN,01472-241159,,,,
Banswara H.O,327001,H.O,Delivery,Dungarpur,Ajmer,Rajasthan,Banswara,Banswara,RAJASTHAN,02962-242734,,,,
Dungarpur H.O,314001,H.O,Delivery,Dungarpur,Ajmer,Rajasthan,Dungarpur,Dungarpur,RAJASTHAN,02964-232511,,,,
Jhalawar H.O,326001,H.O,Delivery,Kota,Ajmer,Rajasthan,Jhalawar,Jhalawar,RAJASTHAN,07432-232359,,,,
Kota H.O,324001,H.O,Delivery,Kota,Ajmer,Rajasthan,Kota,Kota,RAJASTHAN,0744-2327592,,,,
New Grain Mandi Kota H.O,324007,H.O,Delivery,Kota,Ajmer,Rajasthan,Kota,Kota,RAJASTHAN,0744-2363553,,,,
Bundi H.O,323001,H.O,Delivery,Tonk,Ajmer,Rajasthan,Bundi,Bundi,RAJASTHAN,0747-2456740,,,,
Tonk Raj H.O,304001,H.O,Delivery,Tonk,Ajmer,Rajasthan,Tonk,Tonk,RAJASTHAN,01432-253192,,,,
Kankroli H.O,313324,H.O,Delivery,Udaipur,Ajmer,Rajasthan,Rajsamand,Rajsamand,RAJASTHAN,02952-220024,,,,
Udaipur H.O,313004,H.O,Delivery,Udaipur,Ajmer,Rajasthan,Girwa,Udaipur,RAJASTHAN,0294-2429305,,,,
Alwar H.O,301001,H.O,Delivery,Alwar,Jaipur HQ,Rajasthan,Alwar,Alwar,RAJASTHAN,0144-2701731,,,,
Bahror H.O,301701,H.O,Delivery,Alwar,Jaipur HQ,Rajasthan,Bahror,Alwar,RAJASTHAN,01494-220660,,,,
Bharatpur H.O,321001,H.O,Delivery,Bharatpur,Jaipur HQ,Rajasthan,,Bharatpur,RAJASTHAN,05644-230709,,,,
Deeg H.O,321203,H.O,Delivery,Bharatpur,Jaipur HQ,Rajasthan,Bharatpur,Bharatpur,RAJASTHAN,05641-220006,,,,
Dholpur H.O,328001,H.O,Delivery,Dholpur,Jaipur HQ,Rajasthan,Dholpur,Dholpur,RAJASTHAN,05642-220675,,,,
Jaipur G.P.O. ,302001,H.O,Delivery,Jaipur City,Jaipur HQ,Rajasthan,Jaipur,Jaipur,RAJASTHAN,0141-2374000,,,,
Jawahar Nagar H.O,302004,H.O,Delivery,Jaipur City,Jaipur HQ,Rajasthan,Jaipur,Jaipur,RAJASTHAN,0141-2652330,,,,
Shastri Nagar H.O,302016,H.O,Delivery,Jaipur City,Jaipur HQ,Rajasthan,Jaipur,Jaipur,RAJASTHAN,0141-2300077,,,,
Dausa H.O,303303,H.O,Delivery,Jaipur Moffusil,Jaipur HQ,Rajasthan,Dausa,Dausa,RAJASTHAN,01427-230250,,,,
Sambhar Lake H.O,303604,H.O,Delivery,Jaipur Moffusil,Jaipur HQ,Rajasthan,Jaipur,Jaipur,RAJASTHAN,01425-224216,,,,
Shahpura H.O,303103,H.O,Delivery,Jaipur Moffusil,Jaipur HQ,Rajasthan,Jaipur,Jaipur,RAJASTHAN,01422-222050,,,,
Gangapur H.O,322201,H.O,Delivery,Sawaimadhopur,Jaipur HQ,Rajasthan,Gangapur,Sawai Madhopur,RAJASTHAN,07463-234112,,,,
Hindaun H.O,322230,H.O,Delivery,Sawaimadhopur,Jaipur HQ,Rajasthan,Hindaun,Karauli,RAJASTHAN,07469-230250,,,,
Sawaimadhopur H.O,322001,H.O,Delivery,Sawaimadhopur,Jaipur HQ,Rajasthan,Sawaimadhopur,Sawai Madhopur,RAJASTHAN,07462-220450,,,,
Barmer H.O,344001,H.O,Delivery,Barmer,Jodhpur,Rajasthan,Barmer,Barmer,RAJASTHAN,02982-220065,,,,
Bikaner H.O,334001,H.O,Delivery,Bikaner,Jodhpur,Rajasthan,Bikaner,Bikaner,RAJASTHAN,0151-2204248,,,,
Churu H.O,331001,H.O,Delivery,Churu,Jodhpur,Rajasthan,Churu,Churu,RAJASTHAN,01562-250462,,,,
Ratangarh H.O,331022,H.O,Delivery,Churu,Jodhpur,Rajasthan,Ratangarh,Churu,RAJASTHAN,01567-222030,,,,
Chirawa H.O,333026,H.O,Delivery,Jhunjhunu,Jodhpur,Rajasthan,Chirawa,Jhujhunu,RAJASTHAN,01596-220107,,,,
Jhunjhunu H.O,333001,H.O,Delivery,Jhunjhunu,Jodhpur,Rajasthan,Jhunjhunu,Jhujhunu,RAJASTHAN,01592-232266,,,,
Jaisalmer H.O,345001,H.O,Delivery,Jodhpur,Jodhpur,Rajasthan,Jaisalmer,Jaisalmer,RAJASTHAN,02992-252407,,,,
Jodhpur H.O,342001,H.O,Delivery,Jodhpur,Jodhpur,Rajasthan,Jodhpur,Jodhpur,RAJASTHAN,0291-2636695,,,,
Didwana H.O,341303,H.O,Delivery,Nagaur,Jodhpur,Rajasthan,Didwana,Nagaur,RAJASTHAN,01580-220032,,,,
Makrana H.O,341505,H.O,Non-Delivery,Nagaur,Jodhpur,Rajasthan,MAKRANA,Nagaur,RAJASTHAN,01588-240102,,,,
Nagaur H.O,341001,H.O,Delivery,Nagaur,Jodhpur,Rajasthan,Nagaur,Nagaur,RAJASTHAN,01582-240712,,,,
Marwar Jn. H.O,306001,H.O,Delivery,Pali,Jodhpur,Rajasthan,Marwar Jn.,Pali,RAJASTHAN,02935-252515,,,,
Pali Marwar H.O,306401,H.O,Delivery,Pali,Jodhpur,Rajasthan,Pali,Pali,RAJASTHAN,02932-221397,,,,
Sikar H.O,332001,H.O,Delivery,Sikar,Jodhpur,Rajasthan,Sikar,Sikar,RAJASTHAN,01572-255370,,,,
Srimadhopur H.O,332715,H.O,Delivery,Sikar,Jodhpur,Rajasthan,Srimadhopur,Sikar,RAJASTHAN,01575-250119,,,,
Jalore H.O,343001,H.O,Delivery,Sirohi,Jodhpur,Rajasthan,Jalore,Jalor,RAJASTHAN,02973-223801,,,,
Sirohi H.O,307001,H.O,Delivery,Sirohi,Jodhpur,Rajasthan,Sirohi,Sirohi,RAJASTHAN,02972-222258,,,,
Hanumangarh Jn. H.O,335512,H.O,Delivery,Sriganganagar,Jodhpur,Rajasthan,Hanumangarh Jn.,Hanumangarh,RAJASTHAN,01552-260609,,,,
Sriganganagar H.O,335001,H.O,Delivery,Sriganganagar,Jodhpur,Rajasthan,Sriganganagar,Ganganagar,RAJASTHAN,0154-2445017,,,,
Anna Road H.O,600002,H.O,Delivery,Anna Road H.O,Chennai Region,Tamilnadu,Chennai,Chennai,TAMIL NADU,044-28520926,,,,
Arakkonam H.O,631001,H.O,Delivery,Arakkonam,Chennai Region,Tamilnadu,Arakkonam,Vellore,TAMIL NADU,04177-230520,,,,
Ranipet H.O,632401,H.O,Delivery,Arakkonam,Chennai Region,Tamilnadu,Walajapet Taluk,Vellore,TAMIL NADU,04172-272244,,,,
Chengalpattu H.O,603001,H.O,Delivery,Chengalpattu,Chennai Region,Tamilnadu,Chengalpattu,Kanchipuram,TAMIL NADU,044-27431438,,,,
Mylapore H.O,600004,H.O,Delivery,Chennai City Central,Chennai Region,Tamilnadu,Chennai,Chennai,TAMIL NADU,044-24642805,,,,
Thygarayanagar H.O,600017,H.O,Delivery,Chennai City Central,Chennai Region,Tamilnadu,Chennai,Chennai,TAMIL NADU,044-24346691,,,,
Park Town H.O,600003,H.O,Delivery,Chennai City North,Chennai Region,Tamilnadu,Tondiarpet Fort St George,Chennai,TAMIL NADU,044-25340651,,,,
St.Thomas Mount H.O,600016,H.O,Delivery,Chennai City South,Chennai Region,Tamilnadu,Saidapet,Kanchipuram,TAMIL NADU,044-22320694,,,,
Chennai G.P.O. ,600001,H.O,Delivery,Chennai GPO,Chennai Region,Tamilnadu,Chennai,Chennai,TAMIL NADU,044-25216766,,,,
Kanchipuram H.O,631501,H.O,Delivery,Kanchipuram,Chennai Region,Tamilnadu,Kancheepuram,Kanchipuram,TAMIL NADU,044-27222080,,,,
Tiruvallur H.O,602001,H.O,Delivery,Kanchipuram,Chennai Region,Tamilnadu,Tiruvallur,Tiruvallur,TAMIL NADU,044-27660233,,,,
Pondicherry H.O,605001,H.O,Delivery,Pondicherry,Chennai Region,Tamilnadu,Pondicherry,Pondicherry,PONDICHERRY,0413-2336532,,,,
Tindivanam H.O,604001,H.O,Delivery,Pondicherry,Chennai Region,Tamilnadu,Tindivanam,Villupuram,TAMIL NADU,04147-222191,,,,
Villupuram H.O,605602,H.O,Delivery,Pondicherry,Chennai Region,Tamilnadu,Villupuram,Villupuram,TAMIL NADU,04146-223717,,,,
Ambattur H.O,600053,H.O,Delivery,Tambaram,Chennai Region,Tamilnadu,Ambattur,Tiruvallur,TAMIL NADU,044-26245533,,,,
Avadi Camp H.O,600054,H.O,Delivery,Tambaram,Chennai Region,Tamilnadu,Ambattur,Tiruvallur,TAMIL NADU,044-26385092,,,,
Tambaram H.O,600045,H.O,Delivery,Tambaram,Chennai Region,Tamilnadu,Tambaram,Kanchipuram,TAMIL NADU,044-22266203,,,,
Arni H.O,632301,H.O,Delivery,Tiruvannamalai,Chennai Region,Tamilnadu,Arni,Tiruvannamalai,TAMIL NADU,04173-226909,,,,
Tiruvannamalai H.O,606601,H.O,Delivery,Tiruvannamalai,Chennai Region,Tamilnadu,Tiruvannamalai,Tiruvannamalai,TAMIL NADU,04175-253041,,,,
Vellore H.O,632001,H.O,Delivery,Vellore,Chennai Region,Tamilnadu,Vellore Taluk,Vellore,TAMIL NADU,0416-2223908,,,,
Coimbatore H.O,641001,H.O,Delivery,Coimbatore,Coimbatore,Tamilnadu,Coimbatore South,Coimbatore,TAMIL NADU,0422-2395637,,,,
Rathinasabapathy Puram H.O,641002,H.O,Delivery,Coimbatore,Coimbatore,Tamilnadu,Coimbatore South,Coimbatore,TAMIL NADU,0422-2553801,,,,
Dharmapuri H.O,636701,H.O,Delivery,Dharmapuri,Coimbatore,Tamilnadu,Dharmapuri,Dharmapuri,TAMIL NADU,04342-260143,,,,
Bhavani H.O,638301,H.O,Delivery,Erode,Coimbatore,Tamilnadu,Erode,Erode,TAMIL NADU,04256-233035,,,,
Erode H.O,638001,H.O,Delivery,Erode,Coimbatore,Tamilnadu,Erode,Erode,TAMIL NADU,0424-2259111,,,,
Gobichettipalayam H.O,638452,H.O,Delivery,Erode,Coimbatore,Tamilnadu,Erode,Erode,TAMIL NADU,04285-241028,,,,
Krishnagiri H.O,635001,H.O,Delivery,Krishnagiri,Coimbatore,Tamilnadu,Krishnagiri,Krishnagiri,TAMIL NADU,04343-236808,,,,
Namakkal H.O,637001,H.O,Delivery,Namakkal,Coimbatore,Tamilnadu,Namakkal,Namakkal,TAMIL NADU,04286-221251,,,,
Tiruchengodu H.O,637211,H.O,Delivery,Namakkal,Coimbatore,Tamilnadu,Tiruchengodu,Namakkal,TAMIL NADU,04288-252221,,,,
Coonoor H.O,643101,H.O,Delivery,Nilgiris,Coimbatore,Tamilnadu,Coonoor,Nilgiris,TAMIL NADU,0423-2232448,,,,
Udagamandalam H.O,643001,H.O,Delivery,Nilgiris,Coimbatore,Tamilnadu,Udagamandalam,Nilgiris,TAMIL NADU,0423-2443796,,,,
Pollachi H.O,642001,H.O,Delivery,Pollachi,Coimbatore,Tamilnadu,Pollachi,Coimbatore,TAMIL NADU,04259-229316,,,,
Udamalpet H.O,642126,H.O,Delivery,Pollachi,Coimbatore,Tamilnadu,Udamalpet,Coimbatore,TAMIL NADU,04252-223697,,,,
Atur H.O,636102,H.O,Delivery,Salem East,Coimbatore,Tamilnadu,Atur,Salem,TAMIL NADU,04282-240770,,,,
Salem H.O,636001,H.O,Delivery,Salem East,Coimbatore,Tamilnadu,Salem,Salem,TAMIL NADU,0427-2264844,,,,
Suramangalam H.O,636005,H.O,Delivery,Salem West,Coimbatore,Tamilnadu,Salem,Salem,TAMIL NADU,0427-2448677,,,,
Gudiyattam H.O,632602,H.O,Delivery,Tirupattur,Coimbatore,Tamilnadu,Gudiyattam,Vellore,TAMIL NADU,04171-220990,,,,
Tirupattur H.O,635601,H.O,Delivery,Tirupattur,Coimbatore,Tamilnadu,Tirupattur,Vellore,TAMIL NADU,04179-220578,,,,
Dharapuram H.O,638656,H.O,Delivery,Tirupur,Coimbatore,Tamilnadu,Dharapuram,Erode,TAMIL NADU,04258-220258,,,,
Mettupalayam H.O,641301,H.O,Delivery,Tirupur,Coimbatore,Tamilnadu,Mettupalayam,Coimbatore,TAMIL NADU,04254-222115,,,,
Tirupur H.O,641601,H.O,Delivery,Tirupur,Coimbatore,Tamilnadu,Tirupur,Coimbatore,TAMIL NADU,0421-2201550,,,,
Dindigul H.O,624001,H.O,Delivery,Dindigul,Madurai,Tamilnadu,Dindigul,Dindigul,TAMIL NADU,0451-2427503,,,,
Nilakottai H.O,624208,H.O,Delivery,Dindigul,Madurai,Tamilnadu,Dindigul,Dindigul,TAMIL NADU,04543-233638,,,,
Palani H.O,624601,H.O,Delivery,Dindigul,Madurai,Tamilnadu,Dindigul,Dindigul,TAMIL NADU,04545-242304,,,,
Nagercoil H.O,629001,H.O,Delivery,Kanniyakumari,Madurai,Tamilnadu,Agastheeswaram,Kanyakumari,TAMIL NADU,04652-232066,,,,
Thuckalay H.O,629175,H.O,Delivery,Kanniyakumari,Madurai,Tamilnadu,Kalkulam,Kanyakumari,TAMIL NADU,04651-250740,,,,
Devakottai H.O,630302,H.O,Delivery,Karaikudi,Madurai,Tamilnadu,Devakottai,Sivaganga,TAMIL NADU,04561-272308,,,,
Karaikudi H.O,630001,H.O,Delivery,Karaikudi,Madurai,Tamilnadu,Karaikudi,Sivaganga,TAMIL NADU,04565-238812,,,,
Kovilpatti H.O,628501,H.O,Delivery,Kovilpatti,Madurai,Tamilnadu,Kovilpatti,Tuticorin,TAMIL NADU,04632-220368,,,,
Sankarankovil H.O,627756,H.O,Delivery,Kovilpatti,Madurai,Tamilnadu,Sankarankovil,Tirunelveli,TAMIL NADU,04636-222313,,,,
Tenkasi H.O,627811,H.O,Delivery,Kovilpatti,Madurai,Tamilnadu,Tenkasi,Tirunelveli,TAMIL NADU,04633-222329,,,,
Arasaradi H.O,625016,H.O,Delivery,Madurai,Madurai,Tamilnadu,Madurai South,Madurai,TAMIL NADU,0452-2601982,,,,
Madurai H.O,625001,H.O,Delivery,Madurai,Madurai,Tamilnadu,Madurai South,Madurai,TAMIL NADU,0452-2345300,,,,
Tallakulam H.O,625002,H.O,Delivery,Madurai,Madurai,Tamilnadu,Madurai North,Madurai,TAMIL NADU,0452-2530146,,,,
Paramakudi H.O,623707,H.O,Delivery,Ramanathapuram,Madurai,Tamilnadu,Paramakudi,Ramanathapuram,TAMIL NADU,04564-226330,,,,
Ramanathapuram H.O,623501,H.O,Delivery,Ramanathapuram,Madurai,Tamilnadu,Ramanathapuram,Ramanathapuram,TAMIL NADU,04567-220338,,,,
Manamadurai H.O,630606,H.O,Delivery,Sivaganga,Madurai,Tamilnadu,Manamadurai,Sivaganga,TAMIL NADU,04574-268554,,,,
Sivaganga H.O,630561,H.O,Delivery,Sivaganga,Madurai,Tamilnadu,Sivaganga,Sivaganga,TAMIL NADU,04575-240289,,,,
Bodinayakanur H.O,625513,H.O,Delivery,Theni,Madurai,Tamilnadu,Bodinayakanur,Theni,TAMIL NADU,04546-280294,,,,
Periyakulam H.O,625601,H.O,Delivery,Theni,Madurai,Tamilnadu,Periyakulam,Theni,TAMIL NADU,04546-231346,,,,
Ambasamudram H.O,627401,H.O,Delivery,Tirunelveli,Madurai,Tamilnadu,Ambasamudram,Tirunelveli,TAMIL NADU,04634-250394,,,,
Palayankottai H.O,627002,H.O,Delivery,Tirunelveli,Madurai,Tamilnadu,Palayankottai,Tirunelveli,TAMIL NADU,0462-2568064,,,,
Tirunelveli H.O,627001,H.O,Delivery,Tirunelveli,Madurai,Tamilnadu,Tirunelveli,Tirunelveli,TAMIL NADU,0462-2322816,,,,
Srivaikuntam H.O,628601,H.O,Delivery,Tuticorin,Madurai,Tamilnadu,Srivaikuntam,Tuticorin,TAMIL NADU,04630-255240,,,,
Tiruchendur H.O,628215,H.O,Delivery,Tuticorin,Madurai,Tamilnadu,Tiruchendur,Tuticorin,TAMIL NADU,04639-242239,,,,
Tuticorin H.O,628001,H.O,Delivery,Tuticorin,Madurai,Tamilnadu,Thoothukkudi,Tuticorin,TAMIL NADU,0461-2320309,,,,
Aruppukottai H.O,626101,H.O,Delivery,Virudhunagar,Madurai,Tamilnadu,Aruppukkottai,Virudhunagar,TAMIL NADU,04566-220503,,,,
Rajapalayam H.O,626117,H.O,Delivery,Virudhunagar,Madurai,Tamilnadu,Rajapalayam,Virudhunagar,TAMIL NADU,04563-222240,,,,
Sivakasi H.O,626123,H.O,Delivery,Virudhunagar,Madurai,Tamilnadu,Sivakasi,Virudhunagar,TAMIL NADU,04562-220150,,,,
Virudhunagar H.O,626001,H.O,Delivery,Virudhunagar,Madurai,Tamilnadu,Virudhunagar,Virudhunagar,TAMIL NADU,04562-243232,,,,
Chidambaram H.O,608001,H.O,Delivery,Cuddalore,Tiruchy,Tamilnadu,,Cuddalore,TAMIL NADU,04144-230500,,,,
Cuddalore H.O,607001,H.O,Delivery,Cuddalore,Tiruchy,Tamilnadu,Cuddalore,Cuddalore,TAMIL NADU,04142-222493,,,,
Karur H.O,639001,H.O,Delivery,Karur,Tiruchy,Tamilnadu,Karur,Karur,TAMIL NADU,04324-260029,,,,
Kulittalai H.O,639104,H.O,Delivery,Karur,Tiruchy,Tamilnadu,Kulittalai,Karur,TAMIL NADU,04323-222068,,,,
Kumbakonam H.O,612001,H.O,Delivery,Kumbakonam,Tiruchy,Tamilnadu,Kumbakonam,Thanjavur,TAMIL NADU,0435-2420411,,,,
Melakaveri H.O,612002,H.O,Delivery,Kumbakonam,Tiruchy,Tamilnadu,Kumbakonam,Thanjavur,TAMIL NADU,0435-2481188,,,,
Mayiladuthurai H.O,609001,H.O,Delivery,Mayiladuthurai,Tiruchy,Tamilnadu,Mayiladuthurai,Nagapattinam,TAMIL NADU,04364-223228,,,,
Sirkali H.O,609110,H.O,Delivery,Mayiladuthurai,Tiruchy,Tamilnadu,Sirkali Tk,Nagapattinam,TAMIL NADU,04364-270580,,,,
Nagapattinam H.O,611001,H.O,Delivery,Nagapattinam,Tiruchy,Tamilnadu,Nagapattinam,Nagapattinam,TAMIL NADU,04365-242022,,,,
Tiruvarur H.O,610001,H.O,Delivery,Nagapattinam,Tiruchy,Tamilnadu,Thiruvarur,Tiruvarur,TAMIL NADU,04366-222022,,,,
Pattukottai H.O,614601,H.O,Delivery,Pattukottai,Tiruchy,Tamilnadu,Pattukottai,Thanjavur,TAMIL NADU,04373-252078,,,,
Tiruturaipundi H.O,614713,H.O,Delivery,Pattukottai,Tiruchy,Tamilnadu,Tiruturaipundi,Tiruvarur,TAMIL NADU,04369-222460,,,,
Pudukkottai H.O,622001,H.O,Delivery,Pudukkottai,Tiruchy,Tamilnadu,Pudukkottai,Pudukkottai,TAMIL NADU,04322-220722,,,,
Perambalur H.O,621212,H.O,Delivery,Srirangam,Tiruchy,Tamilnadu,Perambalur,Perambalur,TAMIL NADU,04328-276367,,,,
Srirangam H.O,620006,H.O,Delivery,Srirangam,Tiruchy,Tamilnadu,Srirangam,Tiruchirappalli,TAMIL NADU,0431-2432389,,,,
Turaiyur H.O,621010,H.O,Delivery,Srirangam,Tiruchy,Tamilnadu,Turaiyur,Tiruchirappalli,TAMIL NADU,04327-222790,,,,
Mannargudi H.O,614001,H.O,Delivery,Thanjavur,Tiruchy,Tamilnadu,Mannargudi,Tiruvarur,TAMIL NADU,04367-250009,,,,
Papanasam H.O,614205,H.O,Delivery,Thanjavur,Tiruchy,Tamilnadu,Papanasam,Thanjavur,TAMIL NADU,04374-222421,,,,
Thanjavur H.O,613001,H.O,Delivery,Thanjavur,Tiruchy,Tamilnadu,Thanjavur,Thanjavur,TAMIL NADU,04362-231022,,,,
Lalgudi H.O,621601,H.O,Delivery,Tiruchirapalli,Tiruchy,Tamilnadu,Lalgudi,Tiruchirappalli,TAMIL NADU,0431-2542489,,,,
Tiruchirappalli H.O,620001,H.O,Delivery,Tiruchirapalli,Tiruchy,Tamilnadu,Tiruchirappalli,Tiruchirappalli,TAMIL NADU,0431-2466255,,,,
Kallakurichi H.O,606202,H.O,Delivery,Vriddhachalam,Tiruchy,Tamilnadu,Kallakurichi,Villupuram,TAMIL NADU,04151-222441,,,,
Tirukkoyilur H.O,605757,H.O,Delivery,Vriddhachalam,Tiruchy,Tamilnadu,Tirukkoyilur,Villupuram,TAMIL NADU,04153-252328,,,,
Vriddhachalam H.O,606001,H.O,Delivery,Vriddhachalam,Tiruchy,Tamilnadu,Vriddhachalam,Cuddalore,TAMIL NADU,04143-260293,,,,
Agra Fort H.O,282003,H.O,Delivery,Agra,Agra,Uttar Pradesh,,Agra,UTTAR PRADESH,0562-2460761,,,,
Agra H.O,282001,H.O,Delivery,Agra,Agra,Uttar Pradesh,,Agra,UTTAR PRADESH,0562-2463886,,,,
Aligarh H.O,202001,H.O,Delivery,Aligarh,Agra,Uttar Pradesh,Aligarh,Aligarh,UTTAR PRADESH,0571-2705155,,,,
Bulandshahr H.O,203001,H.O,Delivery,Bulandshahar,Agra,Uttar Pradesh,Bulandshahr,Bulandshahr,UTTAR PRADESH,05732-252802,,,,
Khurja H.O,203131,H.O,Delivery,Bulandshahar,Agra,Uttar Pradesh,Khurja,Bulandshahr,UTTAR PRADESH,05738-247440,,,,
Etah H.O,207001,H.O,Delivery,Etah,Agra,Uttar Pradesh,Etah,Etah,UTTAR PRADESH,05742-230684,,,,
Auraiya H.O,206122,H.O,Delivery,Etawah,Agra,Uttar Pradesh,Auraiya,Auraiya,UTTAR PRADESH,05683-244957,,,,
Etawah H.O,206001,H.O,Delivery,Etawah,Agra,Uttar Pradesh,Etawah,Etawah,UTTAR PRADESH,05688-254319,,,,
Jhansi H.O,284001,H.O,Delivery,Jhansi,Agra,Uttar Pradesh,Jhansi,Jhansi,UTTAR PRADESH,0510-2470929,,,,
Lalitpur H.O,284403,H.O,Delivery,Jhansi,Agra,Uttar Pradesh,Lalitpur,Lalitpur,UTTAR PRADESH,05176-272402,,,,
Orai H.O,285001,H.O,Delivery,Jhansi,Agra,Uttar Pradesh,Orai,Jalaun,UTTAR PRADESH,05162-252242,,,,
Firozabad H.O,283203,H.O,Delivery,Mainpuri,Agra,Uttar Pradesh,Firozabad,Firozabad,UTTAR PRADESH,05612-241147,,,,
Mainpuri H.O,205001,H.O,Delivery,Mainpuri,Agra,Uttar Pradesh,Mainpuri,Mainpuri,UTTAR PRADESH,05672-234618,,,,
Mathura H.O,281001,H.O,Delivery,Mathura,Agra,Uttar Pradesh,Mathura,Mathura,UTTAR PRADESH,0565-2403981,,,,
Allahabad H.O,211001,H.O,Delivery,Allahabad,Allahabad,Uttar Pradesh,Allahabad **,Allahabad,UTTAR PRADESH,0532-2622992,,,,
Allahabad Kty. H.O,211002,H.O,Delivery,Allahabad,Allahabad,Uttar Pradesh,Allahabad,Allahabad,UTTAR PRADESH,0532-2548200,,,,
Ghazipur H.O,233001,H.O,Delivery,Ghazipur,Allahabad,Uttar Pradesh,Ghazipur,Ghazipur,UTTAR PRADESH,0548-2221386,,,,
Jaunpur H.O,222001,H.O,Delivery,Jaunpur,Allahabad,Uttar Pradesh,Jaunpur,Jaunpur,UTTAR PRADESH,05452-242848,,,,
Mirzapur H.O,231001,H.O,Delivery,Mirzapur,Allahabad,Uttar Pradesh,Sadar,Mirzapur,UTTAR PRADESH,05442-252167,,,,
Pratapgarh H.O,230001,H.O,Delivery,Pratapgarh,Allahabad,Uttar Pradesh,Pratapgarh,Pratapgarh,UTTAR PRADESH,05342-220635,,,,
Varanasi H.O,221001,H.O,Delivery,Varanasi East,Allahabad,Uttar Pradesh,Varanasi,Varanasi,UTTAR PRADESH,0542-2330050,,,,
Varanasi Cantt H.O,221002,H.O,Delivery,Varanasi West,Allahabad,Uttar Pradesh,Varanasi,Varanasi,UTTAR PRADESH,0542-2504150,,,,
Bareilly H.O,243001,H.O,Delivery,Bareilly,Bareilly,Uttar Pradesh,Bareilly ,Bareilly,UTTAR PRADESH,0581-2424158,,,,
Pilibhit H.O,262001,H.O,Delivery,Bareilly,Bareilly,Uttar Pradesh,Pilibhit,Pilibhit,UTTAR PRADESH,05882-255465,,,,
Bijnor H.O,246701,H.O,Delivery,Bijnor,Bareilly,Uttar Pradesh,Bijnor,Bijnor,UTTAR PRADESH,01342-262640,,,,
Dhampur H.O,246761,H.O,Delivery,Bijnor,Bareilly,Uttar Pradesh,Dhampur,Bijnor,UTTAR PRADESH,01344-230097,,,,
Budaun H.O,243601,H.O,Delivery,Budaun,Bareilly,Uttar Pradesh,Budaun,Budaun,UTTAR PRADESH,05832-267186,,,,
Hardoi H.O,241001,H.O,Delivery,Hardoi,Bareilly,Uttar Pradesh,Hardoi,Hardoi,UTTAR PRADESH,05852-234246,,,,
Kheri H.O,262701,H.O,Delivery,Kheri,Bareilly,Uttar Pradesh,Lakhimpur,Kheri,UTTAR PRADESH,05872-252302,,,,
Baraut H.O,250611,H.O,Delivery,Meerut,Bareilly,Uttar Pradesh,Baraut,Bagpat,UTTAR PRADESH,01234-262211,,,,
Meerut Cantt H.O,250001,H.O,Delivery,Meerut,Bareilly,Uttar Pradesh,Meerut,Meerut,UTTAR PRADESH,0121-2643588,,,,
Meerut City H.O,250002,H.O,Delivery,Meerut,Bareilly,Uttar Pradesh,Meerut,Meerut,UTTAR PRADESH,0121-2420687,,,,
Amroha H.O,244221,H.O,Delivery,Moradabad,Bareilly,Uttar Pradesh,Amroha,Jyotiba Phule Nagar,UTTAR PRADESH,05922-259600,,,,
Moradabad H.O,244001,H.O,Delivery,Moradabad,Bareilly,Uttar Pradesh,Moradabad,Moradabad,UTTAR PRADESH,0591-2415639,,,,
Rampur H.O,244901,H.O,Delivery,Moradabad,Bareilly,Uttar Pradesh,Rampur,Rampur,UTTAR PRADESH,0595-2327133,,,,
Muzaffarnagar H.O,251001,H.O,Delivery,Muzaffarnagar,Bareilly,Uttar Pradesh,Muzaffarnagar,Muzaffarnagar,UTTAR PRADESH,0131-2605472,,,,
Saharanpur H.O,247001,H.O,Delivery,Saharanpur,Bareilly,Uttar Pradesh,Saharanpur,Saharanpur,UTTAR PRADESH,0132-2724420,,,,
Shahjahanpur H.O,242001,H.O,Delivery,Shahjahanpur,Bareilly,Uttar Pradesh,Shahjahanpur,Shahjahanpur,UTTAR PRADESH,05842-225465,,,,
Azamgarh H.O,276001,H.O,Delivery,Azamgarh,Gorakhpur,Uttar Pradesh,Sadar,Azamgarh,UTTAR PRADESH,05462-220014,,,,
Mau H.O,275101,H.O,Delivery,Azamgarh,Gorakhpur,Uttar Pradesh,Sadar,Mau,UTTAR PRADESH,0547-2220812,,,,
Bahraich H.O,271801,H.O,Delivery,Bahraich,Gorakhpur,Uttar Pradesh,Bahraich,Bahraich,UTTAR PRADESH,05252-232838,,,,
Ballia H.O,277001,H.O,Delivery,Ballia,Gorakhpur,Uttar Pradesh,Ballia,Ballia,UTTAR PRADESH,05498-212331,,,,
Rasra H.O,221712,H.O,Delivery,Ballia,Gorakhpur,Uttar Pradesh,Rasra,Ballia,UTTAR PRADESH,05491-226033,,,,
Bansi H.O,272153,H.O,Delivery,Basti,Gorakhpur,Uttar Pradesh,Basti,Basti,UTTAR PRADESH,05545-255253,,,,
Basti H.O,272001,H.O,Delivery,Basti,Gorakhpur,Uttar Pradesh,Basti,Basti,UTTAR PRADESH,05542-282348,,,,
Deoria H.O,274001,H.O,Delivery,Deoria,Gorakhpur,Uttar Pradesh,,Deoria,UTTAR PRADESH,05568-222694,,,,
Padrauna H.O,274304,H.O,Delivery,Deoria,Gorakhpur,Uttar Pradesh,,Kushinagar,UTTAR PRADESH,05564-245015,,,,
Balrampur H.O,271201,H.O,Delivery,Gonda,Gorakhpur,Uttar Pradesh,Balrampur,Balrampur,UTTAR PRADESH,05263-235993,,,,
Gonda H.O,271001,H.O,Delivery,Gonda,Gorakhpur,Uttar Pradesh,Gonda,Gonda,UTTAR PRADESH,05262-231336,,,,
Gorakhpur H.O,273001,H.O,Delivery,Gorakhpur,Gorakhpur,Uttar Pradesh,Gorakhpur,Gorakhpur,UTTAR PRADESH,0551-2334158,,,,
Kunraghat H.O,273008,H.O,Delivery,Gorakhpur,Gorakhpur,Uttar Pradesh,Gorakhpur Sadar,Gorakhpur,UTTAR PRADESH,0551-2273542,,,,
Banda H.O,210001,H.O,Delivery,Banda,Kanpur,Uttar Pradesh,Banda,Banda,UTTAR PRADESH,05192-221610,,,,
Hamirpur H.O,210301,H.O,Delivery,Banda,Kanpur,Uttar Pradesh,Hamirpur,Hamirpur,UTTAR PRADESH,05282-222323,,,,
Fatehgarh H.O,209601,H.O,Delivery,Fatehgarh,Kanpur,Uttar Pradesh,Farrukhabad,Farrukhabad,UTTAR PRADESH,05692-234626,,,,
Fatehpur H.O,212601,H.O,Delivery,Fatehpur,Kanpur,Uttar Pradesh,Fatehpur,Fatehpur,UTTAR PRADESH,05180-224436,,,,
Kanpur Cantt. H.O,208004,H.O,Delivery,Kanpur City,Kanpur,Uttar Pradesh,Cantt.,Kanpur Nagar,UTTAR PRADESH,0512-2380823,,,,
Kanpur H.O,208001,H.O,Delivery,Kanpur City,Kanpur,Uttar Pradesh,Bara Chauraha,Kanpur Nagar,UTTAR PRADESH,0512-2306168,,,,
Nawabganj H.O,208002,H.O,Delivery,Kanpur City,Kanpur,Uttar Pradesh,Nawabganj,Kanpur Nagar,UTTAR PRADESH,0512-2563250,,,,
Unnao H.O,209801,H.O,Delivery,Kanpur Moffusil,Kanpur,Uttar Pradesh,Unnao,Unnao,UTTAR PRADESH,0515-2820247,,,,
Barabanki H.O,225001,H.O,Delivery,Barabanki,Lucknow  HQ,Uttar Pradesh,Nawabganj ,Barabanki,UTTAR PRADESH,05248-222273,,,,
Akbarpur H.O,224122,H.O,Delivery,Faizabad,Lucknow  HQ,Uttar Pradesh,Akbarpur,Ambedkar Nagar,UTTAR PRADESH,05271-244160,,,,
Faizabad H.O,224001,H.O,Delivery,Faizabad,Lucknow  HQ,Uttar Pradesh,Faizabad,Faizabad,UTTAR PRADESH,05278-222301,,,,
Ghaziabad H.O,201001,H.O,Delivery,Ghaziabad,Lucknow  HQ,Uttar Pradesh,Ghaziabad,Ghaziabad,UTTAR PRADESH,0120-2791051,,,,
Hapur H.O,245101,H.O,Delivery,Ghaziabad,Lucknow  HQ,Uttar Pradesh,Hapur,Ghaziabad,UTTAR PRADESH,0122-234071,,,,
Noida H.O,201301,H.O,Delivery,Ghaziabad,Lucknow  HQ,Uttar Pradesh,Noida,Gautam Buddha Nagar,UTTAR PRADESH,0120-2546189,,,,
Lucknow Chowk H.O,226003,H.O,Delivery,Lucknow,Lucknow  HQ,Uttar Pradesh,Lucknow,Lucknow,UTTAR PRADESH,0522-2253165,,,,
Lucknow G.P.O. ,226001,H.O,Delivery,Lucknow GPO,Lucknow  HQ,Uttar Pradesh,Lucknow ,Lucknow,UTTAR PRADESH,0522-2237908,,,,
Lalganj (Raebareli) H.O,229206,H.O,Delivery,Rae Bareilly,Lucknow  HQ,Uttar Pradesh,Lalganj,Raebareli,UTTAR PRADESH,05315-245398,,,,
Raebarely H.O,229001,H.O,Delivery,Rae Bareilly,Lucknow  HQ,Uttar Pradesh,Raebarely,Raebareli,UTTAR PRADESH,0535-2211476,,,,
Sitapur H.O,261001,H.O,Delivery,Sitapur,Lucknow  HQ,Uttar Pradesh,Sitapur,Sitapur,UTTAR PRADESH,05862-271552,,,,
Amethi H.O,227405,H.O,Delivery,Sultanpur,Lucknow  HQ,Uttar Pradesh,Amethi,Sultanpur,UTTAR PRADESH,05362-268672,,,,
Sultanpur (Avadh) H.O,228001,H.O,Delivery,Sultanpur,Lucknow  HQ,Uttar Pradesh,Sultanpur Sadar,Sultanpur,UTTAR PRADESH,05362-240239,,,,
Almora H.O,263601,H.O,Delivery,Almora,Dehradun,Uttarakhand,Almora,Almora,UTTARAKHAND,05962-230019,,,,
Ranikhet H.O,263645,H.O,Delivery,Almora,Dehradun,Uttarakhand,Almora,Almora,UTTARAKHAND,05966-221330,,,,
Gopeshwar H.O,246401,H.O,Delivery,Chamoli,Dehradun,Uttarakhand,,Chamoli,UTTARAKHAND,01372-252108,,,,
Dehradun Cantt H.O,248003,H.O,Delivery,Dehradun,Dehradun,Uttarakhand,Dehradun,Dehradun,UTTARAKHAND,0135-2759353,,,,
Dehradun G.P.O. ,248001,H.O,Delivery,Dehradun,Dehradun,Uttarakhand,Dehradun,Dehradun,UTTARAKHAND,0135-2655141,,,,
Roorkee H.O,247667,H.O,Delivery,Dehradun,Dehradun,Uttarakhand,Roorkee,Haridwar,UTTARAKHAND,01332-272122,,,,
Haldwani H.O,263139,H.O,Delivery,Nainital,Dehradun,Uttarakhand,Haldwani,Nainital,UTTARAKHAND,05942-250144,,,,
Nainital H.O,263001,H.O,Delivery,Nainital,Dehradun,Uttarakhand,Nainital,Nainital,UTTARAKHAND,05942-236199,,,,
Kotdwara H.O,246149,H.O,Delivery,Pauri,Dehradun,Uttarakhand,Kotdwara,Pauri Garhwal,UTTARAKHAND,01382-224100,,,,
Lansdowne H.O,246155,H.O,Delivery,Pauri,Dehradun,Uttarakhand,Lansdowne,Pauri Garhwal,UTTARAKHAND,01386-262245,,,,
Pauri H.O,246001,H.O,Delivery,Pauri,Dehradun,Uttarakhand,Pauri,Pauri Garhwal,UTTARAKHAND,01368-222230,,,,
Pithoragarh H.O,262501,H.O,Delivery,Pithoragarh,Dehradun,Uttarakhand,Pithoragarh,Pithoragarh,UTTARAKHAND,05964-225150,,,,
Tehri H.O,249001,H.O,Delivery,Tehri,Dehradun,Uttarakhand,Tehri,Tehri Garhwal,UTTARAKHAND,01376-233130,,,,
Alipore H.O,700027,H.O,Delivery,Alipore H.O,Calcutta,West Bengal,Kolkata,Kolkata,WEST BENGAL,033-24791644,,,,
Barabazar H.O,700007,H.O,Delivery,Barabazaar H.O,Calcutta,West Bengal,Kolkata,Kolkata,WEST BENGAL,033-22693221,,,,
Barasat H.O,700124,H.O,Delivery,Barasat,Calcutta,West Bengal,Barasat - I,North 24 Parganas,WEST BENGAL,033-25843281,,,,
Basirhat H.O,743411,H.O,Delivery,Barasat,Calcutta,West Bengal,Basirhat - I,North 24 Parganas,WEST BENGAL,03217-265347,,,,
Rampurhat H.O,731224,H.O,Delivery,Birbhum,Calcutta,West Bengal,Rampurhat - I,Birbhum,WEST BENGAL,03461-255150,,,,
Suri H.O,731101,H.O,Delivery,Birbhum,Calcutta,West Bengal,Birbhum,Birbhum,WEST BENGAL,03462-255508,,,,
Tollygunge H.O,700033,H.O,Delivery,Calcutta South,Calcutta,West Bengal,Kolkata,Kolkata,WEST BENGAL,033-24240117,,,,
Park Street H.O,700016,H.O,Delivery,Kolkata Central,Calcutta,West Bengal,Kolkata,Kolkata,WEST BENGAL,033-22172861,,,,
Beleghata H.O,700010,H.O,Delivery,Kolkata East,Calcutta,West Bengal,Beleghata,Kolkata,WEST BENGAL,033-23705061,,,,
Kolkatta G.P.O. ,700001,H.O,Delivery,Kolkata GPO,Calcutta,West Bengal,Kolkata,Kolkata,WEST BENGAL,033-22105150,,,,
Cossipore H.O,700002,H.O,Delivery,Kolkata North,Calcutta,West Bengal,Kolkata,Kolkata,WEST BENGAL,033-25465677,,,,
Berhampore (WB) H.O,742101,H.O,Delivery,Murshidabad,Calcutta,West Bengal,Berhampore,Murshidabad,WEST BENGAL,03482-253909,,,,
Kandi H.O,742137,H.O,Delivery,Murshidabad,Calcutta,West Bengal,Murshidabad,Murshidabad,WEST BENGAL,03484-255492,,,,
Raghunathganj H.O,742225,H.O,Delivery,Murshidabad,Calcutta,West Bengal,Murshidabad,Murshidabad,WEST BENGAL,03483-266021,,,,
Krishnanagar H.O,741101,H.O,Delivery,Nadia North,Calcutta,West Bengal,Krishnagar - I,Nadia,WEST BENGAL,03472-252812,,,,
Nabadwip H.O,741302,H.O,Delivery,Nadia North,Calcutta,West Bengal,Nabadwip Municipality,Nadia,WEST BENGAL,03472-240026,,,,
Kalyani H.O,741235,H.O,Delivery,Nadia South,Calcutta,West Bengal,,Nadia,WEST BENGAL,033-25828226,,,,
Ranaghat H.O,741201,H.O,Delivery,Nadia South,Calcutta,West Bengal,Ranaghat-i/ii,Nadia,WEST BENGAL,03473-210004,,,,
Barrackpore H.O,700120,H.O,Delivery,North Presidency,Calcutta,West Bengal,Barrackpore,North 24 Parganas,WEST BENGAL,033-25920276,,,,
Belgharia H.O,700056,H.O,Delivery,North Presidency,Calcutta,West Bengal,Belgharia,North 24 Parganas,WEST BENGAL,033-28750196,,,,
Baruipur H.O,700144,H.O,Delivery,South Presidency,Calcutta,West Bengal,Baruipur,South 24 Parganas,WEST BENGAL,033-24338322,,,,
Diamond Harbour H.O,743331,H.O,Delivery,South Presidency,Calcutta,West Bengal,Diamond Harbour - I,South 24 Parganas,WEST BENGAL,03174-255672,,,,
Port Blair H.O,744101,H.O,Delivery,A - N Islands,Calcutta HQ,West Bengal,Port Blair,South Andaman,ANDAMAN & NICOBAR ISLANDS,03192-232566,,,,
Cooch Behar H.O,736101,H.O,Delivery,Cooch Behar,North Bengal And Sikkim,West Bengal,Cooch Behar - I,Cooch Behar,WEST BENGAL,03582-222708,,,,
Darjeeling H.O,734101,H.O,Delivery,Darjeeling,North Bengal And Sikkim,West Bengal,Darjeeling Pulbazar,Darjiling,WEST BENGAL,0354-2252849,,,,
Siliguri H.O,734001,H.O,Delivery,Darjeeling,North Bengal And Sikkim,West Bengal,Siliguri,Darjiling,WEST BENGAL,0353-2538850,,,,
Jalpaiguri H.O,735101,H.O,Delivery,Jalpaiguri,North Bengal And Sikkim,West Bengal,Jalpaiguri Sadar,Jalpaiguri,WEST BENGAL,03561-230687,,,,
Mal H.O,735221,H.O,Delivery,Jalpaiguri,North Bengal And Sikkim,West Bengal,Mal,Jalpaiguri,WEST BENGAL,03562-255025,,,,
Malda H.O,732101,H.O,Delivery,Malda,North Bengal And Sikkim,West Bengal,Englishbazar,Malda,WEST BENGAL,03512-253031,,,,
Gangtok H.O,737101,H.O,Delivery,Sikkim,North Bengal And Sikkim,West Bengal,Gangtok,East Sikkim,SIKKIM,03592-201218,,,,
Balurghat H.O,733101,H.O,Delivery,West Dinajpur,North Bengal And Sikkim,West Bengal,Balurghat,South Dinajpur,WEST BENGAL,03522-255305,,,,
Asansol H.O,713301,H.O,Delivery,Asansol,South Bengal,West Bengal,Jamuria,Bardhaman,WEST BENGAL,0341-2303661,,,,
Durgapur H.O,713201,H.O,Delivery,Asansol,South Bengal,West Bengal,Durgapur Municipal Corporation,Bardhaman,WEST BENGAL,0343-2550807,,,,
Raniganj H.O,713347,H.O,Delivery,Asansol,South Bengal,West Bengal,Raniganj Municipality,Bardhaman,WEST BENGAL,0341-2444618,,,,
Bankura H.O,722101,H.O,Delivery,Bankura,South Bengal,West Bengal,Bankura - I,Bankura,WEST BENGAL,03242-253118,,,,
Burdwan H.O,713101,H.O,Delivery,Burdwan,South Bengal,West Bengal,Burdwan - I,Bardhaman,WEST BENGAL,0342-2665081,,,,
Katwa H.O,713130,H.O,Delivery,Burdwan,South Bengal,West Bengal,Katwa,Bardhaman,WEST BENGAL,03453-255040,,,,
Contai H.O,721401,H.O,Delivery,Contai,South Bengal,West Bengal,Contai,East Midnapore,WEST BENGAL,03220-255102,,,,
Arambagh H.O,712601,H.O,Delivery,Hooghly North,South Bengal,West Bengal,Arambagh,Hooghly,WEST BENGAL,03211-255050,,,,
Chinsurah H.O,712101,H.O,Delivery,Hooghly North,South Bengal,West Bengal,Chinsurah,Hooghly,WEST BENGAL,033-26802300,,,,
Serampore H.O,712201,H.O,Delivery,Hooghly South,South Bengal,West Bengal,Serampur Uttarpara,Hooghly,WEST BENGAL,033-26527308,,,,
Howrah H.O,711101,H.O,Delivery,Howrah,South Bengal,West Bengal,Uluberia - II,Howrah,WEST BENGAL,033-26414699,,,,
Salkia H.O,711106,H.O,Delivery,Howrah,South Bengal,West Bengal,Uluberia - I,Howrah,WEST BENGAL,033-26757172,,,,
Jhargram H.O,721507,H.O,Delivery,Midnapore,South Bengal,West Bengal,Jhargram,West Midnapore,WEST BENGAL,03221-255044,,,,
Midnapore H.O,721101,H.O,Delivery,Midnapore,South Bengal,West Bengal,Midnapore,West Midnapore,WEST BENGAL,03222-275659,,,,
Purulia H.O,723101,H.O,Delivery,Purulia,South Bengal,West Bengal,Purulia - I,Puruliya,WEST BENGAL,03252-222018,,,,
Tamluk H.O,721636,H.O,Delivery,Tamluk,South Bengal,West Bengal,Tamluk,East Midnapore,WEST BENGAL,03228-266013,,,,
